ID,NOMBRE,PROVINCIA,TIPO,ELEV,LAT,LONG,FECHA_INI,FECHA_FIN,OPERADA,LATDD,LONDD,STATUS,URL,UTM_X,UTM_Y,x,y
100-003,Lima F.B.P. Armuelles,Chiriquí,Tipo C Convencional,3,"8° 21' 00""","82° 46' 00""","12/31/1960, 7:00 PM",31/12/1965,Chiriqui Land Company,8.35,-82.7666666667, , ,305454.6927,923426.8884,305454.69269999955,923426.8883999996
100-038,Limones 2,Chiriquí,Tipo A Automática,0,"8° 20' 02""","82° 23' 42""",, ,E.T.E.S.A.,8.33388888889,-82.395, ,http://www.hidromet.com.pa/red_nacional.php,346385.165,921481.1752,346385.16500000004,921481.1752000004
100-101,Puerto Armuelles,Chiriquí,Tipo C Convencional,15,"8° 17' 00""","82° 52' 00""","12/31/1929, 7:00 PM",31/12/1972,Chiriqui Land Company,8.28333333333,-82.8666666667, , ,294404.2747,916103.634199999,294404.27469999995,916103.6341999993
100-102,Blanco (Pto Armuelles),Chiriquí,Tipo C Convencional,20,"8° 23' 00""","82° 53' 00""","12/31/1929, 7:00 PM",1/6/1981,Chiriqui Land Company,8.38333333333,-82.8833333333, , ,292620.6773,927173.3938,292620.67729999963,927173.3937999997
100-103,Almendro (Pto Armelles),Chiriquí,Tipo C Convencional,18,"8° 26' 00""","82° 53' 00""","12/31/1953, 7:00 PM",1/12/1969,Chiriqui Land Company,8.43333333333,-82.8833333333, , ,292647.2699,932703.9619,292647.2698999997,932703.9618999995
100-104,Balsa (Pto Armuelles),Chiriquí,Tipo C Convencional,16,"8° 26' 00""","82° 54' 00""","12/31/1945, 7:00 PM",1/12/1969,Chiriqui Land Company,8.43333333333,-82.9, , ,290811.6446,932712.853399999,290811.64460000023,932712.8533999994
100-105,Bongo (Pto Armuelles),Chiriquí,Tipo C Convencional,30,"8° 24' 00""","82° 54' 00""","12/31/1959, 7:00 PM",1/12/1970,Chiriqui Land Company,8.4,-82.9, , ,290793.7414,929025.772399999,290793.7413999997,929025.7723999992
100-106,Burica (Pto Armuelles),Chiriquí,Tipo C Convencional,60,"8° 24' 00""","82° 55' 00""","12/31/1945, 7:00 PM",1/12/1968,Chiriqui Land Company,8.4,-82.9166666667, , ,288957.9417,929034.708000001,288957.9417000003,929034.7080000006
100-107,Caoba (Pto Armuelles),Chiriquí,Tipo C Convencional,14,"8° 24' 00""","82° 52' 00""","12/31/1945, 7:00 PM",1/12/1972,Chiriqui Land Company,8.4,-82.8666666667, , ,294465.2897,929008.1359,294465.2896999996,929008.1359000001
100-108,Cocos (Pto Armuelles),Chiriquí,Tipo C Convencional,72,"8° 24' 00""","82° 57' 00""","12/31/1945, 7:00 PM",1/12/1966,Chiriqui Land Company,8.4,-82.95, , ,285286.2904,929052.8136,285286.2904000003,929052.8136
100-110,Baco (Pto Armuelles),Chiriquí,Tipo C Convencional,8,"8° 21' 00""","82° 45' 00""","12/31/1961, 7:00 PM",1/12/1968,Chiriqui Land Company,8.35,-82.75, , ,307290.5789,923418.704,307290.5789000001,923418.7039999999
100-111,Teca (Pto Armuelles),Chiriquí,Tipo C Convencional,3,"8° 22' 00""","82° 46' 00""","12/31/1959, 7:00 PM",1/12/1965,Chiriqui Land Company,8.36666666667,-82.7666666667, , ,305462.9578,925270.2917,305462.9578,925270.2917
100-112,Higueron (Pto Armuelles),Chiriquí,Tipo C Convencional,20,"8° 25' 00""","82° 54' 00""","12/31/1945, 7:00 PM",31/12/1972,Chiriqui Land Company,8.41666666667,-82.9, , ,290802.6842,930869.312200001,290802.6842,930869.3122000005
100-113,Palmito (Pto Armuelles),Chiriquí,Tipo C Convencional,11,"8° 23' 00""","82° 51' 00""","12/31/1947, 7:00 PM",31/12/1972,Chiriqui Land Company,8.38333333333,-82.85, , ,296292.3488,927155.9473,296292.3487999998,927155.9473000001
100-114,Corredor (Pto Armuelles),Chiriquí,Tipo C Convencional,28,"8° 21' 00""","82° 49' 00""","12/31/1945, 7:00 PM",31/12/1972,Chiriqui Land Company,8.35,-82.8166666667, , ,299946.9382,923451.9079,299946.93819999974,923451.9079
100-115,Lechoza (Pto Armuelles),Chiriquí,Tipo C Convencional,10,"8° 22' 00""","82° 50' 00""","12/31/1945, 7:00 PM",1/12/1970,Chiriqui Land Company,8.36666666667,-82.8333333333, , ,298119.565,925303.871400001,298119.5650000004,925303.8714000005
100-116,Guayacan (Pto Armuelles),Chiriquí,Tipo C Convencional,18,"8° 21' 00""","82° 49' 00""","12/31/1945, 7:00 PM",31/12/1972,Chiriqui Land Company,8.35,-82.8166666667, , ,299946.9382,923451.9079,299946.93819999974,923451.9079
100-117,La Ceiba (Pto Armuelles),Chiriquí,Tipo C Convencional,20,"8° 21' 00""","82° 51' 00""","12/31/1953, 7:00 PM",31/12/1972,Chiriqui Land Company,8.35,-82.85, , ,296275.0204,923468.976199999,296275.0203999998,923468.9761999995
100-118,Malagueto (Pto Armuelles),Chiriquí,Tipo C Convencional,13,"8° 21' 00""","82° 49' 00""","12/31/1945, 7:00 PM",31/12/1972,Chiriqui Land Company,8.35,-82.8166666667, , ,299946.9382,923451.9079,299946.93819999974,923451.9079
100-119,Toreto (Pto Armuelles),Chiriquí,Tipo C Convencional,25,"8° 21' 00""","82° 47' 00""","12/31/1959, 7:00 PM",1/12/1963,Chiriqui Land Company,8.35,-82.7833333333, , ,303618.7906,923435.150599999,303618.79059999995,923435.1505999994
100-120,Zapatero (Po Armuelles),Chiriquí,Tipo C Convencional,25,"8° 24' 00""","82° 53' 00""","12/31/1969, 7:00 PM",31/12/1972,Chiriqui Land Company,8.4,-82.8833333333, , ,292629.524,929016.915100001,292629.5240000002,929016.9151000008
100-121,Manaca (Pto Armuelles),Chiriquí,Tipo C Convencional,10,"8° 20' 00""","82° 49' 00""","12/31/1945, 7:00 PM",1/12/1965,Chiriqui Land Company,8.33333333333,-82.8166666667, , ,299938.4556,921608.457599999,299938.4556,921608.4575999994
100-122,Sigua (Pto Armuelles),Chiriquí,Tipo C Convencional,25,"8° 25' 00""","82° 55' 00""","12/31/1945, 7:00 PM",1/12/1967,Chiriqui Land Company,8.41666666667,-82.9166666667, , ,288966.963,930878.265000001,288966.96300000045,930878.2650000006
100-123,Guayabo (Pto Armuelles),Chiriquí,Tipo C Convencional,20,"8° 25' 00""","82° 54' 00""","12/31/1945, 7:00 PM",1/12/1965,Chiriqui Land Company,8.41666666667,-82.9, , ,290802.6842,930869.312200001,290802.6842,930869.3122000005
100-124,Corozo (Pto Armuelles),Chiriquí,Tipo C Convencional,40,"8° 25' 00""","82° 56' 00""","12/31/1945, 7:00 PM",1/12/1967,Chiriqui Land Company,8.41666666667,-82.9333333333, , ,287131.2247,930887.296,287131.22470000014,930887.2960000001
100-125,Canazas (Pto Armuelles),Chiriquí,Tipo C Convencional,40,"8° 24' 00""","82° 56' 00""","12/31/1945, 7:00 PM",1/12/1965,Chiriqui Land Company,8.4,-82.9333333333, , ,287122.1247,929043.7217,287122.1246999996,929043.7216999996
100-126,Pital (Pto Armuelles),Chiriquí,Tipo C Convencional,20,"8° 25' 00""","82° 50' 00""","12/31/1945, 7:00 PM",1/12/1959,Chiriqui Land Company,8.41666666667,-82.8333333333, , ,298145.3995,930834.284499999,298145.3995000003,930834.2844999991
100-127,Carana (Pto Armuelles),Chiriquí,Tipo C Convencional,20,"8° 24' 00""","82° 52' 00""","12/31/1938, 7:00 PM",1/12/1959,Chiriqui Land Company,8.4,-82.8666666667, , ,294465.2897,929008.1359,294465.2896999996,929008.1359000001
100-128,Corotu (Pto Armuelles),Chiriquí,Tipo C Convencional,6,"8° 22' 00""","82° 47' 00""","12/31/1958, 7:00 PM",1/12/1967,Chiriqui Land Company,8.36666666667,-82.7833333333, , ,303627.1338,925278.569800001,303627.13379999995,925278.5698000006
100-129,Chuchupate (Pto Armuelles),Chiriquí,Tipo C Convencional,20,"8° 25' 00""","82° 50' 00""","12/31/1956, 7:00 PM",1/12/1963,Chiriqui Land Company,8.41666666667,-82.8333333333, , ,298145.3995,930834.284499999,298145.3995000003,930834.2844999991
100-130,María (Pto Armuelles),Chiriquí,Tipo C Convencional,11,"8° 25' 00""","82° 51' 00""","12/31/1957, 7:00 PM",1/12/1964,Chiriqui Land Company,8.41666666667,-82.85, , ,296309.7457,930842.923900001,296309.74569999985,930842.9239000008
100-131,Quira (Pto Armuelles),Chiriquí,Tipo C Convencional,20,"8° 26' 00""","82° 51' 00""","12/31/1957, 7:00 PM",1/12/1965,Chiriqui Land Company,8.43333333333,-82.85, , ,296318.4699,932686.4143,296318.4698999999,932686.4143000003
100-132,Jobito (Pto Armuelles),Chiriquí,Tipo C Convencional,11,"8° 23' 00""","82° 51' 00""","12/31/1945, 7:00 PM",31/12/1972,Chiriqui Land Company,8.38333333333,-82.85, , ,296292.3488,927155.9473,296292.3487999998,927155.9473000001
100-133,Limones 1,Chiriquí,Tipo C Convencional,15,"8° 06' 00""","82° 52' 00""","1/11/1970, 7:00 PM",1/3/2000,E.T.E.S.A.,8.1,-82.8666666667, ,http://www.hidromet.com.pa/red_nacional.php,294310.1068,895825.266899999,294310.1068000002,895825.2668999992
100-134,Lima,Chiriquí,Tipo C Convencional,3,"8° 21' 00""","82° 46' 00""","12/31/1960, 7:00 PM",1/12/1965,Chiriqui Land Company,8.35,-82.7666666667, , ,305454.6927,923426.8884,305454.69269999955,923426.8883999996
100-135,El Jazmín,Chiriquí,Tipo B Convencional,10,"8° 21' 00""","82° 34' 00""","1/10/1982, 7:00 PM",1/8/2001,Chiriqui Land Company,8.35,-82.5666666667, , ,327484.3217,923333.8024,327484.3217000002,923333.8024000004
100-136,Burica Centro,Chiriquí,Tipo B Convencional,30,"8° 23' 00""","82° 54' 00""","1/10/1982, 7:00 PM",22/08/1997,E.T.E.S.A.,8.38333333333,-82.9, ,http://www.hidromet.com.pa/red_nacional.php,290784.8162,927182.233999999,290784.81620000023,927182.2339999992
100-138,Limones 2,Chiriquí,Tipo A Automática,50,"8° 06' 17""","82° 52' 05""",, ,E.T.E.S.A.,8.10472222222,-82.8680555556, ,http://www.hidromet.com.pa/red_nacional.php,294159.4124,896348.290100001,294159.4123999998,896348.2901000008
102-001,Cerro Punta,Chiriquí,Tipo C Convencional,1830,"8° 52' 00""","82° 35' 00""","1/8/1962, 7:00 PM", ,E.T.E.S.A.,8.86666666667,-82.5833333333, ,http://www.hidromet.com.pa/red_nacional.php,325885.0128,980482.1556,325885.0127999997,980482.1556000002
102-002,Nueva California,Chiriquí,Tipo C Convencional,1400,"8° 47' 00""","82° 39' 00""","1/7/1958, 7:00 PM",1/8/1994,E.T.E.S.A.,8.78333333333,-82.65, ,http://www.hidromet.com.pa/red_nacional.php,318511.2193,971297.375800001,318511.2193,971297.3758000005
102-003,Bambito,Chiriquí,Tipo C Convencional,1700,"8° 50' 00""","82° 37' 00""","12/31/1957, 7:00 PM",1/9/1971,E.T.E.S.A.,8.83333333333,-82.6166666667, ,http://www.hidromet.com.pa/red_nacional.php,322202.5027,976811.3233,322202.50270000007,976811.3233000003
102-004,Cerro Punta (F.M),Chiriquí,Tipo C Convencional,1540,"8° 49' 00""","82° 38' 00""","12/31/1945, 7:00 PM",1/12/1960,E.T.E.S.A.,8.81666666667,-82.6333333333, ,http://www.hidromet.com.pa/red_nacional.php,320361.0009,974975.9891,320361.00090000033,974975.9890999999
102-005,Divalá,Chiriquí,Tipo C Convencional,8,"8° 25' 00""","82° 43' 00""","1/7/1968, 7:00 PM",1/12/1998,E.T.E.S.A.,8.41666666667,-82.7166666667, ,http://www.hidromet.com.pa/red_nacional.php,310994.523,930776.001,310994.52300000004,930776.0010000002
102-006,Divalá (vieja) 1,Chiriquí,Tipo C Convencional,60,"8° 26' 00""","82° 43' 00""","12/31/1920, 7:00 PM",1/12/1926,E.T.E.S.A.,8.43333333333,-82.7166666667, ,http://www.hidromet.com.pa/red_nacional.php,311002.6174,932619.3627,311002.6173999999,932619.3627000004
102-007,Caisán Centro,Chiriquí,Tipo A Automática,1150,"8° 46' 00""","82° 44' 00""","12/31/1970, 7:00 PM",31/10/1998,E.T.E.S.A.,8.76666666667,-82.7333333333, ,http://www.hidromet.com.pa/red_nacional.php,309333.9889,969495.3171,309333.98890000023,969495.3170999996
102-008,Jacú,Chiriquí,Tipo C Convencional,30,"8° 29' 00""","82° 48' 00""","12/31/1970, 7:00 PM",1/12/1998,E.T.E.S.A.,8.48333333333,-82.8, ,http://www.hidromet.com.pa/red_nacional.php,301850.7098,938191.0131,301850.7098000003,938191.0131000001
102-009,Bajo Grande,Chiriquí,Tipo B Convencional,2300,"8° 51' 00""","82° 33' 00""","1/4/1971, 7:00 PM", ,E.T.E.S.A.,8.85,-82.55, ,http://www.hidromet.com.pa/red_nacional.php,329543.7777,978623.4461,329543.77770000044,978623.4461000003
102-010,Corotu,Chiriquí,Tipo C Convencional,6,"8° 22' 00""","82° 47' 00""","1/9/1959, 7:00 PM",1/1/1968,E.T.E.S.A.,8.36666666667,-82.7833333333, ,http://www.hidromet.com.pa/red_nacional.php,303627.1338,925278.569800001,303627.13379999995,925278.5698000006
102-011,Paso Canoas,Chiriquí,Tipo B Convencional,126,"8° 32' 00""","82° 50' 00""","1/11/1971, 7:00 PM",1/2/1977,E.T.E.S.A.,8.53333333333,-82.8333333333, ,http://www.hidromet.com.pa/red_nacional.php,298206.2744,943738.6307,298206.27440000046,943738.6306999996
102-013,Río Sereno,Chiriquí,Tipo C Convencional,900,"8° 49' 00""","82° 52' 00""","1/6/1972, 7:00 PM",1/12/1998,E.T.E.S.A.,8.81666666667,-82.8666666667, ,http://www.hidromet.com.pa/red_nacional.php,294690.1174,975096.2049,294690.1173999999,975096.2049000002
102-014,Canas Gordas,Chiriquí,Tipo C Convencional,1140,"8° 45' 00""","82° 55' 00""","1/6/1972, 7:00 PM", ,E.T.E.S.A.,8.75,-82.9166666667, ,http://www.hidromet.com.pa/red_nacional.php,289151.1192,967749.699200001,289151.1191999996,967749.6992000006
102-015,Brenon,Chiriquí,Tipo C Convencional,700,"8° 38' 00""","82° 49' 00""","1/6/1972, 7:00 PM", ,E.T.E.S.A.,8.63333333333,-82.8166666667, ,http://www.hidromet.com.pa/red_nacional.php,300093.7169,954790.779200001,300093.71690000035,954790.7792000007
102-016,Gomez Arriba,Chiriquí,Tipo C Convencional,380,"8° 34' 00""","82° 44' 00""","1/8/1972, 7:00 PM", ,E.T.E.S.A.,8.56666666667,-82.7333333333, ,http://www.hidromet.com.pa/red_nacional.php,309233.1178,947374.5392,309233.1178000001,947374.5392000005
102-017,Santa Cruz,Chiriquí,Tipo C Convencional,670,"8° 39' 00""","82° 46' 00""","1/8/1972, 7:00 PM", ,E.T.E.S.A.,8.65,-82.7666666667, ,http://www.hidromet.com.pa/red_nacional.php,305605.9685,956608.363500001,305605.9685000004,956608.3635000009
102-018,Hato Volcán,Chiriquí,Tipo C Convencional,1300,"8° 45' 00""","82° 40' 00""","12/31/1925, 7:00 PM",1/12/1935,E.T.E.S.A.,8.75,-82.6666666667, ,http://www.hidromet.com.pa/red_nacional.php,316661.1559,967618.7908,316661.15589999966,967618.7907999996
102-019,Cotito,Chiriquí,Tipo C Automática,1900,"8° 53' 00""","82° 42' 00""","1/2/1977, 7:00 PM", ,E.T.E.S.A.,8.88333333333,-82.7, ,http://www.hidromet.com.pa/red_nacional.php,313060.441,982382.2325,313060.44099999964,982382.2324999999
102-020,Piedra Candela,Chiriquí,Tipo C Convencional,1440,"8° 53' 00""","82° 46' 00""","1/2/1977, 7:00 PM", ,E.T.E.S.A.,8.88333333333,-82.7666666667, ,http://www.hidromet.com.pa/red_nacional.php,305727.2919,982416.5012,305727.2918999996,982416.5011999998
102-021,Cerro Totuma,Chiriquí,Tipo C Convencional,2200,"8° 53' 00""","82° 40' 00""","1/9/1981, 7:00 PM",1/10/1994,E.T.E.S.A.,8.88333333333,-82.6666666667, ,http://www.hidromet.com.pa/red_nacional.php,316726.9239,982365.5932,316726.9238999998,982365.5932
102-022,Frupasa,Chiriquí,Tipo B Convencional,500,"8° 36' 00""","82° 43' 00""","1/3/1982, 7:00 PM",1/7/1984,Frutas Panameñas S.A.,8.6,-82.7166666667, , ,311084.4365,951053.058700001,311084.43649999984,951053.0587000009
102-023,Santa Clara,Chiriquí,Tipo C Convencional,1200,"8° 49' 00""","82° 45' 00""","1/8/1982, 7:00 PM", ,Los Cafetales,8.81666666667,-82.75, , ,307525.9422,975034.090399999,307525.9422000004,975034.0903999992
102-024,Rio Colorado,Chiriquí,Tipo C Convencional,1180,"8° 50' 00""","82° 42' 00""","1/5/1984, 7:00 PM", ,Los Cafetales,8.83333333333,-82.7, , ,313035.166,976852.0798,313035.1660000002,976852.0798000004
102-025,Vivero En Rio Sereno,Chiriquí,Tipo C Convencional,809,"8° 48' 00""","82° 51' 00""","12/31/1985, 7:00 PM",1/5/1987,E.T.E.S.A.,8.8,-82.85, ,http://www.hidromet.com.pa/red_nacional.php,296514.7373,973243.5624,296514.73730000015,973243.5624000002
102-026,Santa Rita,Chiriquí,Tipo B Convencional,10,"8° 20' 00""","82° 43' 00""","1/8/1986, 7:00 PM",10/10/2000,A.N.A.M.,8.33333333333,-82.7166666667,Inactive,http://www.anam.gob.pa,310954.2893,921559.213500001,310954.2893000003,921559.2135000005
102-027,San Benito,Chiriquí,Tipo A Automática,1400,"8° 47' 57""","82° 39' 14""","1/4/1996, 7:00 PM",30/11/2003,E.T.E.S.A.,8.79916666667,-82.6538888889, ,http://www.hidromet.com.pa/red_nacional.php,318091.0818,973050.4298,318091.0817999998,973050.4298
102-029,Sortova,Chiriquí,Tipo A Automática,400,"8° 31' 48""","80° 31' 16""","11/4/2007, 7:00 PM", ,E.T.E.S.A.,8.53,-80.5211111111, ,http://www.hidromet.com.pa/red_nacional.php,552703.3574,942923.6076,552703.3574000001,942923.6075999998
102-030,Caisan Plaza,Chiriquí,Tipo A Automática,940,"8° 31' 48""","80° 31' 16""",, ,E.T.E.S.A.,8.53,-80.5211111111, ,http://www.hidromet.com.pa/red_nacional.php,552703.3574,942923.6076,552703.3574000001,942923.6075999998
102-031,Margarita,Chiriquí,Tipo B Convencional,32,"8° 24' 00""","82° 46' 00""","12/31/1999, 7:00 PM", ,"PUMSA, INC. S.A.",8.4,-82.7666666667, , ,305479.5371,928957.102299999,305479.5371000003,928957.1022999994
102-032,Tadeo,Chiriquí,Tipo B Convencional,44,"8° 24' 01""","82° 46' 01""","12/31/1999, 7:00 PM", ,"PUMSA, INC. S.A.",8.40027777778,-82.7669444444, , ,305449.0812,928987.9637,305449.0811999999,928987.9637000002
103-001,Belen 1,Colón,Tipo C Convencional,3,"8° 52' 00""","80° 52' 00""","1/3/1979, 7:00 PM",1/4/2000,E.T.E.S.A.,8.86666666667,-80.8666666667, ,http://www.hidromet.com.pa/red_nacional.php,514660.5378,980113.8979,514660.53780000005,980113.8979000002
103-002,Belen 2,Colón,Tipo A Automática,10,"8° 52' 59""","80° 82' 09""","6/4/2007, 7:00 PM", ,E.T.E.S.A.,8.88305555556,-81.3691666667, ,http://www.hidromet.com.pa/red_nacional.php,459410.2029,981943.3587,459410.2028999999,981943.3586999997
104-001,Cuesta De Piedra,Chiriquí,Tipo C Convencional,1000,"8° 41' 00""","82° 37' 00""","1/10/1968, 7:00 PM", ,E.T.E.S.A.,8.68333333333,-82.6166666667, ,http://www.hidromet.com.pa/red_nacional.php,322131.2076,960221.615900001,322131.2076000003,960221.6159000006
104-002,Palo Grande,Chiriquí,Tipo C Convencional,5,"8° 20' 00""","82° 36' 00""","1/7/1969, 7:00 PM",1/12/1998,E.T.E.S.A.,8.33333333333,-82.6, ,http://www.hidromet.com.pa/red_nacional.php,323805.3952,921505.290100001,323805.39520000014,921505.2901000008
104-003,La Concepcion 1,Chiriquí,Tipo C Convencional,270,"8° 32' 00""","82° 37' 00""","12/31/1953, 7:00 PM",1/12/1958,E.T.E.S.A.,8.53333333333,-82.6166666667, ,http://www.hidromet.com.pa/red_nacional.php,322061.1247,943632.028200001,322061.1246999996,943632.0282000005
104-004,La Concepcion 2,Chiriquí,Tipo B Convencional,270,"8° 32' 00""","82° 37' 00""","1/3/1971, 7:00 PM",1/11/1981,E.T.E.S.A.,8.53333333333,-82.6166666667, ,http://www.hidromet.com.pa/red_nacional.php,322061.1247,943632.028200001,322061.1246999996,943632.0282000005
104-005,Cantagallo,Chiriquí,Tipo C Convencional,13,"8° 22' 00""","82° 37' 00""","1/8/1976, 7:00 PM",1/2/1984,E.T.E.S.A.,8.36666666667,-82.6166666667, ,http://www.hidromet.com.pa/red_nacional.php,321984.6771,925199.291099999,321984.6771,925199.2910999991
104-007,Santo Tomas,Chiriquí,Tipo C Convencional,10,"8° 23' 00""","82° 39' 00""","1/3/1982, 7:00 PM",1/2/1984,E.T.E.S.A.,8.38333333333,-82.65, ,http://www.hidromet.com.pa/red_nacional.php,318321.0233,927057.820900001,318321.02329999954,927057.8209000006
105-001,Boca de Toabré,Coclé,Tipo C Convencional,170,"8° 55' 00""","80° 33' 00""","1/3/1958, 7:00 PM", ,E.T.E.S.A.,8.91666666667,-80.55, ,http://www.hidromet.com.pa/red_nacional.php,549473.0492,985669.2104,549473.0492000002,985669.2104000002
105-002,Chiguiri Arriba,Coclé,Tipo C Convencional,180,"8° 40' 00""","80° 11' 00""","1/6/1958, 7:00 PM", ,E.T.E.S.A.,8.66666666667,-80.1833333333, ,http://www.hidromet.com.pa/red_nacional.php,589846.6743,958096.5931,589846.6743000001,958096.5931000002
105-003,Coclé del Norte,Colón,Tipo C Convencional,2,"9° 04' 00""","80° 34' 00""","1/3/1969, 7:00 PM", ,E.T.E.S.A.,9.06666666667,-80.5666666667, ,http://www.hidromet.com.pa/red_nacional.php,547621.0765,1002251.0497,547621.0765000004,1002251.0496999994
105-004,Tambo,Coclé,Tipo C Convencional,200,"8° 39' 00""","80° 17' 00""","12/31/1969, 7:00 PM",1/12/1998,E.T.E.S.A.,8.65,-80.2833333333, ,http://www.hidromet.com.pa/red_nacional.php,578847.9208,956231.682600001,578847.9208000004,956231.6826000009
105-005,Toabré,Coclé,Tipo B Convencional,200,"8° 38' 00""","80° 21' 00""","1/1/1970, 7:00 PM", ,E.T.E.S.A.,8.63333333333,-80.35, ,http://www.hidromet.com.pa/red_nacional.php,571516.0537,954375.825999999,571516.0537,954375.8259999994
105-006,Coclesito 1,Colón,Tipo C Convencional,80,"8° 49' 00""","80° 33' 00""","12/31/1971, 7:00 PM",1/12/1982,E.T.E.S.A.,8.81666666667,-80.55, ,http://www.hidromet.com.pa/red_nacional.php,549486.4336,974613.2414,549486.4336000001,974613.2413999997
105-007,San Lucas,Colón,Tipo B Convencional,30,"9° 00' 00""","80° 34' 00""","1/9/1973, 7:00 PM", ,E.T.E.S.A.,9,-80.5666666667, ,http://www.hidromet.com.pa/red_nacional.php,547629.8292,994880.353800001,547629.8291999996,994880.3538000006
105-008,Sabanita Verde,Colón,Tipo C Convencional,100,"8° 49' 00""","80° 21' 00""","1/5/1977, 7:00 PM", ,E.T.E.S.A.,8.81666666667,-80.35, ,http://www.hidromet.com.pa/red_nacional.php,571481.1701,974645.603700001,571481.1700999998,974645.6037000008
105-009,Coclesito,Colón,Tipo B Convencional,60,"8° 49' 00""","80° 33' 00""","1/9/1979, 7:00 PM",20/08/1999,E.T.E.S.A.,8.81666666667,-80.55, ,http://www.hidromet.com.pa/red_nacional.php,549486.4336,974613.2414,549486.4336000001,974613.2413999997
105-010,Santa Ana (OBRE),Coclé,Tipo C Convencional,200,"8° 49' 00""","80° 16' 00""","1/9/1980, 7:00 PM", ,E.T.E.S.A.,8.81666666667,-80.2666666667, ,http://www.hidromet.com.pa/red_nacional.php,580645.8755,974662.562000001,580645.8755000001,974662.5620000008
106-001,Alanje 1,Chiriquí,Tipo C Convencional,55,"8° 26' 00""","82° 33' 00""","12/31/1959, 7:00 PM",31/12/1972,E.T.E.S.A.,8.43333333333,-82.55, ,http://www.hidromet.com.pa/red_nacional.php,329356.4234,932542.607799999,329356.42339999974,932542.6077999994
106-002,Alanje 2,Chiriquí,Tipo B Convencional,32,"8° 20' 37""","82° 33' 35""","1/4/1959, 7:00 PM",1/3/2000,E.T.E.S.A.,8.34361111111,-82.5597222222, ,http://www.hidromet.com.pa/red_nacional.php,328246.4086,922624.2051,328246.40859999973,922624.2050999999
106-003,Santa Rita,Chiriquí,Tipo C Convencional,820,"8° 39' 00""","82° 33' 00""","1/2/1970, 7:00 PM",1/3/1991,E.T.E.S.A.,8.65,-82.55, ,http://www.hidromet.com.pa/red_nacional.php,329452.7283,956504.528000001,329452.7282999996,956504.5280000009
106-004,Macano Arriba,Chiriquí,Tipo C Convencional,520,"8° 37' 00""","82° 35' 00""","1/8/1971, 7:00 PM", ,E.T.E.S.A.,8.61666666667,-82.5833333333, ,http://www.hidromet.com.pa/red_nacional.php,325768.8605,952833.0967,325768.8605000004,952833.0966999996
106-005,Querevalo,Chiriquí,Tipo C Convencional,30,"8° 23' 00""","82° 30' 00""","1/8/1976, 7:00 PM",1/9/1978,E.T.E.S.A.,8.38333333333,-82.5, ,http://www.hidromet.com.pa/red_nacional.php,334841.1139,926991.5953,334841.11390000023,926991.5953000002
106-006,Jarquin,Chiriquí,Tipo C Convencional,18,"8° 23' 00""","82° 33' 00""","1/8/1976, 7:00 PM",1/5/1981,E.T.E.S.A.,8.38333333333,-82.55, ,http://www.hidromet.com.pa/red_nacional.php,329334.5437,927012.968900001,329334.5437000003,927012.9689000007
106-008,Aguacate,Chiriquí,Tipo C Convencional,700,"8° 39' 00""","82° 32' 00""","1/2/1977, 7:00 PM",1/6/1980,E.T.E.S.A.,8.65,-82.5333333333, ,http://www.hidromet.com.pa/red_nacional.php,331286.9932,956497.1033,331286.9932000004,956497.1032999996
106-009,Corozal,Chiriquí,Tipo C Convencional,10,"8° 22' 00""","82° 30' 00""","1/2/1978, 7:00 PM",1/5/1992,E.T.E.S.A.,8.36666666667,-82.5, ,http://www.hidromet.com.pa/red_nacional.php,334834.084,925148.4265,334834.0839999998,925148.4265000001
106-010,La Pita (Ing. de Alanje),Chiriquí,Tipo C Convencional,32,"8° 24' 00""","82° 37' 00""","1/3/1982, 7:00 PM",1/2/1984,E.T.E.S.A.,8.4,-82.6166666667, ,http://www.hidromet.com.pa/red_nacional.php,321999.8468,928885.827,321999.8468000004,928885.8269999996
106-011,Finca de Orquideas,Chiriquí,Tipo B Convencional,1200,"8° 45' 00""","82° 37' 00""","1/5/1985, 7:00 PM",1/10/1994,E.T.E.S.A.,8.75,-82.6166666667, ,http://www.hidromet.com.pa/red_nacional.php,322162.7447,967594.804300001,322162.7446999997,967594.8043000009
106-012,La Martina (Alanje),Chiriquí,Tipo A Automática,0,"8° 20' 37""","82° 33' 35""","1/5/2009, 7:00 PM", ,E.T.E.S.A.,8.34361111111,-82.5597222222, ,http://www.hidromet.com.pa/red_nacional.php,328246.4086,922624.2051,328246.40859999973,922624.2050999999
108-001,Finca Lerida,Chiriquí,Tipo C Convencional,1700,"8° 48' 00""","82° 29' 00""","1/2/1963, 7:00 PM", ,E.T.E.S.A.,8.8,-82.4833333333, ,http://www.hidromet.com.pa/red_nacional.php,336854.8671,973063.9888,336854.8671000004,973063.9888000004
108-002,El Valle,Chiriquí,Tipo C Automática,40,"8° 25' 00""","82° 20' 00""","1/2/1963, 7:00 PM", ,E.T.E.S.A.,8.41666666667,-82.3333333333, ,http://www.hidromet.com.pa/red_nacional.php,353208.0278,930611.502900001,353208.0278000003,930611.5029000007
108-003,Planta Caldera,Chiriquí,Tipo B Convencional,920,"8° 43' 00""","82° 28' 00""","1/5/1958, 7:00 PM",1/3/2000,E.T.E.S.A.,8.71666666667,-82.4666666667, ,http://www.hidromet.com.pa/red_nacional.php,338652.4157,963840.885500001,338652.4156999998,963840.8855000008
108-004,Caldera (Pueblo Nuevo),Chiriquí,Tipo C Mixta,350,"8° 39' 00""","82° 23' 00""","1/9/1962, 7:00 PM", ,E.T.E.S.A.,8.65,-82.3833333333, ,http://www.hidromet.com.pa/red_nacional.php,347794.7767,956433.8969,347794.7767000003,956433.8969
108-005,Bajo Boquete,Chiriquí,Tipo C Convencional,1060,"8° 46' 00""","82° 26' 00""","1/8/1966, 7:00 PM",1/2/2000,E.T.E.S.A.,8.76666666667,-82.4333333333, ,http://www.hidromet.com.pa/red_nacional.php,342341.177,969356.261399999,342341.17700000014,969356.2613999993
108-006,Potrerillo Arriba,Chiriquí,Tipo C Mixta,930,"8° 41' 00""","82° 31' 00""","1/10/1955, 7:00 PM", ,E.T.E.S.A.,8.68333333333,-82.5166666667, ,http://www.hidromet.com.pa/red_nacional.php,333135.952,960176.1752,333135.9519999996,960176.1752000004
108-007,Rio Hornitos,Chiriquí,Tipo C Convencional,1020,"8° 44' 00""","82° 14' 00""","1/4/1958, 7:00 PM",1/2/1982,E.T.E.S.A.,8.73333333333,-82.2333333333, ,http://www.hidromet.com.pa/red_nacional.php,364331.5373,965592.1983,364331.53729999997,965592.1983000003
108-008,La Cordillera,Chiriquí,Tipo C Mixta,1200,"8° 44' 00""","82° 16' 00""","1/2/1963, 7:00 PM",31/12/2000,E.T.E.S.A.,8.73333333333,-82.2666666667, ,http://www.hidromet.com.pa/red_nacional.php,360664.2559,965604.348300001,360664.2559000002,965604.3483000007
108-009,Los Palomos,Chiriquí,Tipo C Convencional,420,"8° 35' 00""","82° 28' 00""","1/2/1963, 7:00 PM", ,E.T.E.S.A.,8.58333333333,-82.4666666667, ,http://www.hidromet.com.pa/red_nacional.php,338595.6348,949095.5546,338595.6348000001,949095.5546000004
108-010,La Esperanza,Chiriquí,Tipo C Convencional,200,"8° 35' 00""","82° 20' 00""","1/2/1925, 7:00 PM",1/3/2000,E.T.E.S.A.,8.58333333333,-82.3333333333, ,http://www.hidromet.com.pa/red_nacional.php,353271.4345,949042.0239,353271.43450000044,949042.0239000004
108-011,Dolega (Pueblo Nuevo),Chiriquí,Tipo C Convencional,270,"8° 34' 00""","82° 25' 00""","1/9/1962, 7:00 PM",1/12/1998,E.T.E.S.A.,8.56666666667,-82.4166666667, ,http://www.hidromet.com.pa/red_nacional.php,344092.3578,947231.7618,344092.35780000035,947231.7618000004
108-012,David 1,Chiriquí,Tipo C Convencional,15,"8° 24' 00""","82° 25' 00""","12/31/1967, 7:00 PM",31/12/1972,E.T.E.S.A.,8.4,-82.4166666667, ,http://www.hidromet.com.pa/red_nacional.php,344025.1154,928800.6362,344025.11539999954,928800.6361999996
108-013,Angostura de Cochea,Chiriquí,Tipo C Convencional,210,"8° 34' 00""","82° 23' 00""","1/2/1963, 7:00 PM", ,E.T.E.S.A.,8.56666666667,-82.3833333333, ,http://www.hidromet.com.pa/red_nacional.php,347761.467,947218.4044,347761.4670000002,947218.4044000003
108-014,Veladero Gualaca,Chiriquí,Tipo C Convencional,45,"8° 25' 00""","82° 18' 00""","1/2/1963, 7:00 PM", ,E.T.E.S.A.,8.41666666667,-82.3, ,http://www.hidromet.com.pa/red_nacional.php,356878.4418,930599.1548,356878.44180000015,930599.1547999997
108-015,Cermeno,Chiriquí,Tipo C Convencional,170,"8° 31' 00""","82° 26' 00""","12/31/1965, 7:00 PM", ,E.T.E.S.A.,8.51666666667,-82.4333333333, ,http://www.hidromet.com.pa/red_nacional.php,342237.2345,941709.168299999,342237.23450000025,941709.1682999991
108-017,Los Naranjos,Chiriquí,Tipo B Convencional,1200,"8° 47' 00""","82° 27' 00""","1/11/1971, 7:00 PM", ,E.T.E.S.A.,8.78333333333,-82.45, ,http://www.hidromet.com.pa/red_nacional.php,340514.6788,971206.4592,340514.6787999999,971206.4592000004
108-018,Paja de Sombrero,Chiriquí,Tipo B Convencional,388,"8° 41' 00""","82° 19' 00""","1/5/1970, 7:00 PM", ,E.T.E.S.A.,8.68333333333,-82.3166666667, ,http://www.hidromet.com.pa/red_nacional.php,355144.0074,960094.0043,355144.00739999954,960094.0043000001
108-019,Fortuna,Chiriquí,Tipo C Convencional,1040,"8° 44' 38""","82° 14' 58""","1/4/1970, 7:00 PM",1/9/1982,E.T.E.S.A.,8.74388888889,-82.2494444444, ,http://www.hidromet.com.pa/red_nacional.php,362562.8913,966765.273399999,362562.89130000025,966765.2733999994
108-020,Quebrada Bijao,Chiriquí,Tipo C Mixta,1080,"8° 45' 00""","82° 11' 00""","1/6/1970, 7:00 PM", ,E.T.E.S.A.,8.75,-82.1833333333, ,http://www.hidromet.com.pa/red_nacional.php,369838.1627,967417.5535,369838.1627000002,967417.5535000004
108-021,Quebrada Ortega,Chiriquí,Tipo C Convencional,1280,"8° 42' 00""","82° 12' 00""","1/7/1970, 7:00 PM",1/2/1982,E.T.E.S.A.,8.7,-82.2, ,http://www.hidromet.com.pa/red_nacional.php,367987.0736,961894.4114,367987.07359999977,961894.4113999996
108-022,Hornitos,Chiriquí,Tipo C Automática,1340,"8° 44' 00""","82° 15' 00""","1/9/1970, 7:00 PM", ,E.T.E.S.A.,8.73333333333,-82.25, ,http://www.hidromet.com.pa/red_nacional.php,362497.9022,965598.232799999,362497.90220000036,965598.2327999994
108-023,David,Chiriquí,Tipo A Convencional,27,"8° 24' 00""","82° 25' 00""","1/5/1967, 7:00 PM", ,E.T.E.S.A.,8.4,-82.4166666667, ,http://www.hidromet.com.pa/red_nacional.php,344025.1154,928800.6362,344025.11539999954,928800.6361999996
108-024,Pension Marilos,Chiriquí,Tipo C Convencional,1080,"8° 46' 00""","82° 26' 00""","1/9/1962, 7:00 PM",1/1/1966,E.T.E.S.A.,8.76666666667,-82.4333333333, ,http://www.hidromet.com.pa/red_nacional.php,342341.177,969356.261399999,342341.17700000014,969356.2613999993
108-029,Gualaca 1,Chiriquí,Tipo C Convencional,120,"8° 32' 00""","82° 18' 00""","12/31/1954, 7:00 PM",1/3/2000,E.T.E.S.A.,8.53333333333,-82.3, ,http://www.hidromet.com.pa/red_nacional.php,356921.5895,943500.3377,356921.58949999977,943500.3377
108-030,Las Huacas,Chiriquí,Tipo C Convencional,960,"8° 42' 00""","82° 25' 00""","12/31/1920, 7:00 PM",1/12/1924,E.T.E.S.A.,8.7,-82.4166666667, ,http://www.hidromet.com.pa/red_nacional.php,344147.0961,961976.769400001,344147.09609999973,961976.7694000006
108-031,Alto Lino,Chiriquí,Tipo C Convencional,1450,"8° 48' 00""","82° 26' 00""","1/8/1953, 7:00 PM",1/2/1960,E.T.E.S.A.,8.8,-82.4333333333, ,http://www.hidromet.com.pa/red_nacional.php,342355.2615,973042.566099999,342355.2615,973042.5660999995
108-032,Bella Vista 1,Chiriquí,Tipo C Convencional,730,"8° 36' 00""","82° 14' 00""","1/3/1974, 7:00 PM",1/3/2000,E.T.E.S.A.,8.6,-82.2333333333, ,http://www.hidromet.com.pa/red_nacional.php,364283.7059,950848.215399999,364283.7059000004,950848.2153999992
108-033,San Pablo,Chiriquí,Tipo C Convencional,60,"8° 27' 00""","82° 30' 00""","12/31/1907, 6:40 PM",1/2/1984,E.T.E.S.A.,8.45,-82.5, ,http://www.hidromet.com.pa/red_nacional.php,334869.3725,934364.2851,334869.3724999996,934364.2851
108-034,Finca Estatal Alanje,Chiriquí,Tipo C Convencional,15,"8° 24' 00""","82° 20' 00""","1/8/1976, 7:00 PM",1/9/1982,E.T.E.S.A.,8.4,-82.3333333333, ,http://www.hidromet.com.pa/red_nacional.php,353201.755,928768.459000001,353201.7549999999,928768.4590000007
108-035,Los Planes,Chiriquí,Tipo B Convencional,750,"8° 33' 00""","82° 17' 00""","1/6/1978, 7:00 PM",1/1/1983,E.T.E.S.A.,8.55,-82.2833333333, ,http://www.hidromet.com.pa/red_nacional.php,358762.3577,945337.219900001,358762.3576999996,945337.2199000008
108-037,India Vieja,Chiriquí,Tipo C Convencional,1160,"8° 45' 00""","82° 21' 00""","1/8/1980, 7:00 PM",1/3/2000,E.T.E.S.A.,8.75,-82.35, ,http://www.hidromet.com.pa/red_nacional.php,351502.4528,967479.2281,351502.4528000001,967479.2281
108-038,Planta Estrella,Chiriquí,Tipo C Convencional,620,"8° 47' 00""","82° 21' 00""","1/8/1980, 7:00 PM",1/5/1999,E.T.E.S.A.,8.78333333333,-82.35, ,http://www.hidromet.com.pa/red_nacional.php,351515.6928,971165.4047,351515.6928000003,971165.4046999998
108-040,Loma Colorada,Chiriquí,Tipo C Convencional,25,"8° 24' 00""","82° 25' 00""","1/4/1982, 7:00 PM",1/2/1984,E.T.E.S.A.,8.4,-82.4166666667, ,http://www.hidromet.com.pa/red_nacional.php,344025.1154,928800.6362,344025.11539999954,928800.6361999996
108-041,Fauprenare,Chiriquí,Tipo B Convencional,25,"8° 23' 00""","82° 20' 00""","1/3/1984, 7:00 PM",1/4/1984,A.N.A.M.,8.38333333333,-82.3333333333,Inactive,http://www.anam.gob.pa/,353195.4946,926925.4165,353195.49459999986,926925.4165000003
108-042,Fortuna (casa Control),Chiriquí,Tipo A Automática,1010,"8° 40' 00""","82° 16' 00""","1/1/1990, 7:00 PM", ,E.T.E.S.A.,8.66666666667,-82.2666666667, ,http://www.hidromet.com.pa/red_nacional.php,360639.5996,958232.254699999,360639.5996000003,958232.2546999995
108-043,Gualaca II,Chiriquí,Tipo B Convencional,100,"8° 31' 00""","82° 18' 00""","1/10/1995, 7:00 PM", ,E.T.E.S.A.,8.51666666667,-82.3, ,http://www.hidromet.com.pa/red_nacional.php,356915.3895,941657.3071,356915.3894999996,941657.3070999999
108-045,Estí,Chiriquí,Tipo C Convencional,310,"8° 36' 00""","82° 17' 00""",,25/06/1997,E.T.E.S.A.,8.6,-82.2833333333, ,http://www.hidromet.com.pa/red_nacional.php,358780.8263,950866.2904,358780.82629999984,950866.2904000003
108-046,Londres (Gualaca),Chiriquí,Tipo A Automática,511,"8° 36' 10""","82° 11' 06""","1/9/1997, 7:00 PM",1/10/1997,E.T.E.S.A.,8.60277777778,-82.185, ,http://www.hidromet.com.pa/red_nacional.php,369604.012,951138.586100001,369604.0120000001,951138.5861000009
108-047,Fortuna (sitio Presa),Chiriquí,Tipo B Automática,1050,"8° 43' 00""","82° 13' 00""","1/5/1985, 7:00 PM", ,E.T.E.S.A.,8.71666666667,-82.2166666667, ,http://www.hidromet.com.pa/red_nacional.php,366159.2239,963743.252699999,366159.22389999963,963743.2526999991
108-048,Bella Vista 2,Chiriquí,Tipo A Automática,724,"8° 36' 07""","82° 13' 51""","5/8/2007, 7:00 PM", ,E.T.E.S.A.,8.60194444444,-82.2308333333, ,http://www.hidromet.com.pa/red_nacional.php,364559.5382,951062.346000001,364559.5382000003,951062.3460000008
108-049,Se Guasquitas,Chiriquí,Tipo A Automática,132,"8° 32' 29""","82° 17' 41""","3/6/2003, 7:00 PM", ,E.T.E.S.A.,8.54138888889,-82.2947222222, ,http://www.hidromet.com.pa/red_nacional.php,357505.5476,944389.1822,357505.54760000017,944389.1821999997
109-001,Miguel de La Borda,Colón,Tipo C Convencional,2,"9° 09' 00""","80° 19' 00""","1/1/1975, 7:00 PM",1/3/2000,E.T.E.S.A.,9.15,-80.3166666667, ,http://www.hidromet.com.pa/red_nacional.php,575078.3966,1011507.0239,575078.3965999996,1011507.0239000004
110-001,San Lorenzo,Chiriquí,Tipo C Convencional,30,"8° 19' 00""","82° 16' 00""","1/7/1967, 7:00 PM",1/12/1998,E.T.E.S.A.,8.31666666667,-82.2666666667, ,http://www.hidromet.com.pa/red_nacional.php,360513.2319,919529.159399999,360513.2319,919529.1593999993
110-002,La Pita (Chorcha),Chiriquí,Tipo C Convencional,40,"8° 24' 00""","82° 15' 00""","1/10/1968, 7:00 PM",1/12/1998,E.T.E.S.A.,8.4,-82.25, ,http://www.hidromet.com.pa/red_nacional.php,362378.0952,928738.2335,362378.09520000033,928738.2335000001
110-003,Cerro Banco,Chiriquí,Tipo C Convencional,340,"8° 27' 00""","82° 02' 00""","12/31/1991, 7:00 PM", ,E.T.E.S.A.,8.45,-82.0333333333, ,http://www.hidromet.com.pa/red_nacional.php,386249.9233,934197.3399,386249.9232999999,934197.3399
110-004,Boca de Jebay,Chiriquí,Tipo C Convencional,130,"8° 29' 00""","82° 05' 00""","1/3/1971, 7:00 PM",1/5/1978,E.T.E.S.A.,8.48333333333,-82.0833333333, ,http://www.hidromet.com.pa/red_nacional.php,380755.5319,937898.054400001,380755.5318999998,937898.0544000007
110-005,Meseta de Chorcha,Chiriquí,Tipo C Convencional,430,"8° 26' 00""","82° 13' 00""","1/11/1974, 7:00 PM",1/5/1975,E.T.E.S.A.,8.43333333333,-82.2166666667, ,http://www.hidromet.com.pa/red_nacional.php,366060.0099,932412.6182,366060.00989999995,932412.6182000004
110-006,Camaron Arriba,Chiriquí,Tipo C Convencional,480,"8° 23' 00""","82° 00' 00""","1/11/1974, 7:00 PM",1/12/1998,E.T.E.S.A.,8.38333333333,-82, ,http://www.hidromet.com.pa/red_nacional.php,389900.8123,926816.4331,389900.81230000034,926816.4331
110-007,Horconcitos,Chiriquí,Tipo C Convencional,54,"8° 19' 00""","82° 08' 00""","1/8/1976, 7:00 PM",1/4/1982,E.T.E.S.A.,8.31666666667,-82.1333333333, ,http://www.hidromet.com.pa/red_nacional.php,375198.0057,919484.6664,375198.00569999963,919484.6664000005
110-008,Soloy,Chiriquí,Tipo C Automática,600,"8° 33' 00""","82° 06' 00""","1/7/1978, 7:00 PM", ,E.T.E.S.A.,8.55,-82.1, ,http://www.hidromet.com.pa/red_nacional.php,378941.7482,945274.8127,378941.74820000026,945274.8126999997
110-009,Chorcha (Ing. Alanje),Chiriquí,Tipo C Convencional,10,"8° 22' 00""","82° 17' 00""","12/31/1982, 7:00 PM",1/2/1984,E.T.E.S.A.,8.36666666667,-82.2833333333, ,http://www.hidromet.com.pa/red_nacional.php,358695.5548,925064.0769,358695.55480000004,925064.0768999998
111-001,Boca de Uracillo,Coclé,Tipo C Convencional,20,"8° 58' 00""","80° 11' 00""","1/7/1974, 7:00 PM",1/3/2000,E.T.E.S.A.,8.96666666667,-80.1833333333, ,http://www.hidromet.com.pa/red_nacional.php,589774.2032,991266.6642,589774.2032000003,991266.6642000005
112-001,Remedios,Chiriquí,Tipo B Convencional,40,"8° 14' 00""","81° 50' 00""","12/31/1950, 7:00 PM",1/12/1998,E.T.E.S.A.,8.23333333333,-81.8333333333, ,http://www.hidromet.com.pa/red_nacional.php,408217.191,910188.948000001,408217.19099999964,910188.9480000008
112-002,Pueblito San Juan,Chiriquí,Tipo C Convencional,25,"8° 16' 00""","81° 59' 00""","1/4/1970, 7:00 PM",1/12/1998,E.T.E.S.A.,8.26666666667,-81.9833333333, ,http://www.hidromet.com.pa/red_nacional.php,391703.9161,913912.0824,391703.91610000003,913912.0823999997
112-003,San Felix,Chiriquí,Tipo C Convencional,110,"8° 17' 00""","81° 52' 00""","1/8/1971, 7:00 PM", ,E.T.E.S.A.,8.28333333333,-81.8666666667, ,http://www.hidromet.com.pa/red_nacional.php,404557.6256,915725.0067,404557.6255999999,915725.0066999998
112-004,Quebrada Loro,Chiriquí,Tipo C Convencional,390,"8° 22' 00""","81° 54' 00""","1/1/1993, 7:00 PM", ,E.T.E.S.A.,8.36666666667,-81.9, ,http://www.hidromet.com.pa/red_nacional.php,400907.4361,924947.0342,400907.4360999996,924947.0341999996
112-005,Hato Pilon,Chiriquí,Tipo C Convencional,635,"8° 24' 00""","81° 52' 00""","1/8/1971, 7:00 PM",1/3/2000,E.T.E.S.A.,8.4,-81.8666666667, ,http://www.hidromet.com.pa/red_nacional.php,404585.9346,928624.3276,404585.93460000027,928624.3276000004
112-007,Remedios (vieja),Chiriquí,Tipo C Convencional,20,"8° 14' 00""","81° 49' 00""","1/3/1951, 7:00 PM",31/12/1967,E.T.E.S.A.,8.23333333333,-81.8166666667,Inactive,http://www.hidromet.com.pa/red_nacional.php,410052.9685,910185.1624,410052.9685000004,910185.1623999998
112-008,San Juan,Chiriquí,Tipo C Convencional,40,"8° 16' 00""","81° 57' 00""","12/31/1959, 7:00 PM",1/12/1963,E.T.E.S.A.,8.26666666667,-81.95, ,http://www.hidromet.com.pa/red_nacional.php,395375.3002,913903.1755,395375.3002000004,913903.1754999999
112-009,Campamento Escopeta,Chiriquí,Tipo B Convencional,1100,"8° 31' 00""","81° 47' 00""","1/4/1974, 7:00 PM",1/10/1987,CODEMIN,8.51666666667,-81.7833333333, , ,413786.8857,941504.1624,413786.88570000045,941504.1623999998
112-010,Lajero,Chiriquí,Tipo C Convencional,250,"8° 17' 00""","81° 46' 00""","1/11/1974, 7:00 PM",1/4/1975,E.T.E.S.A.,8.28333333333,-81.7666666667, ,http://www.hidromet.com.pa/red_nacional.php,415570.8828,915702.389599999,415570.8827999998,915702.3895999994
112-011,Chami,Chiriquí,Tipo B Convencional,1100,"8° 27' 00""","81° 47' 00""","1/2/1981, 7:00 PM",1/5/1987,CODEMIN,8.45,-81.7833333333, , ,413772.0185,934133.218699999,413772.01850000024,934133.2186999992
112-012,Punta Yurre,Chiriquí,Tipo B Convencional,50,"8° 06' 00""","81° 42' 00""","1/2/1981, 7:00 PM",1/5/1987,CODEMIN,8.1,-81.7, , ,422877.628,895419.4157,422877.62799999956,895419.4156999998
112-013,Division,Bocas del Toro,Tipo B Convencional,1900,"8° 33' 00""","81° 47' 00""","1/1/1981, 7:00 PM",1/5/1987,CODEMIN,8.55,-81.7833333333, , ,413794.3629,945189.6435,413794.36290000007,945189.6435000002
112-014,Raton,Chiriquí,Tipo A Automática,1520,"8° 32' 24""","81° 49' 09""",, ,E.T.E.S.A.,8.54,-81.8191666667, ,http://www.hidromet.com.pa/red_nacional.php,409848.3116,944092.189099999,409848.31159999967,944092.1890999991
113-001,Icacal,Colón,Tipo B Convencional,11,"9° 12' 00""","80° 09' 00""","12/31/1958, 7:00 PM", ,E.T.E.S.A.,9.2,-80.15, ,http://www.hidromet.com.pa/red_nacional.php,593378.2803,1017074.4878,593378.2802999998,1017074.4878000002
113-003,Pina,Colón,Tipo C Convencional,3,"9° 16' 00""","80° 02' 00""","1/11/1970, 7:00 PM",1/11/1998,E.T.E.S.A.,9.26666666667,-80.0333333333, ,http://www.hidromet.com.pa/red_nacional.php,606176.041,1024478.5562,606176.0410000002,1024478.5561999995
114-001,Veladero (Tolé),Chiriquí,Tipo C Convencional,280,"8° 14' 00""","81° 39' 00""","1/9/1962, 7:00 PM",1/3/2000,E.T.E.S.A.,8.23333333333,-81.65, ,http://www.hidromet.com.pa/red_nacional.php,428410.3633,910151.5134,428410.3633000003,910151.5133999996
114-002,Camaron Tabasara,Chiriquí,Tipo C Convencional,20,"8° 03' 00""","81° 38' 00""","1/9/1955, 7:00 PM", ,E.T.E.S.A.,8.05,-81.6333333333, ,http://www.hidromet.com.pa/red_nacional.php,430214.3367,889879.448799999,430214.33669999987,889879.4487999994
114-003,Rio Vigui,Veraguas,Tipo C Convencional,60,"8° 12' 00""","81° 33' 00""","1/11/1968, 7:00 PM",1/12/1998,E.T.E.S.A.,8.2,-81.55, ,http://www.hidromet.com.pa/red_nacional.php,439419.4539,906449.740900001,439419.4539000001,906449.7409000006
114-004,Sitio Prado,Chiriquí,Tipo C Convencional,380,"8° 22' 00""","81° 33' 00""","12/31/1970, 7:00 PM",1/12/1998,E.T.E.S.A.,8.36666666667,-81.55, ,http://www.hidromet.com.pa/red_nacional.php,439444.9375,924876.0747,439444.9375,924876.0746999998
114-006,Pena Blanca,Chiriquí,Tipo C Convencional,870,"8° 27' 00""","81° 40' 00""","1/9/1971, 7:00 PM",1/12/1998,E.T.E.S.A.,8.45,-81.6666666667, ,http://www.hidromet.com.pa/red_nacional.php,426615.091,934109.336999999,426615.091,934109.3369999994
114-007,Cerro Iglesia,Chiriquí,Tipo C Convencional,370,"8° 18' 00""","81° 34' 00""","1/10/1971, 7:00 PM", ,E.T.E.S.A.,8.3,-81.5666666667, ,http://www.hidromet.com.pa/red_nacional.php,437599.3134,917508.104900001,437599.31340000033,917508.1049000006
114-008,Maraca,Veraguas,Tipo C Convencional,640,"8° 22' 00""","81° 44' 00""","1/9/1971, 7:00 PM",1/4/2000,E.T.E.S.A.,8.36666666667,-81.7333333333, ,http://www.hidromet.com.pa/red_nacional.php,419258.9868,924908.9705,419258.9868000001,924908.9704999998
114-009,El Prado,Veraguas,Tipo C Convencional,360,"8° 14' 00""","81° 30' 00""","1/9/1972, 7:00 PM",1/6/1983,E.T.E.S.A.,8.23333333333,-81.5, ,http://www.hidromet.com.pa/red_nacional.php,444931.5143,910127.769099999,444931.5142999999,910127.7690999992
114-010,Ojo de Agua,Veraguas,Tipo B Convencional,320,"8° 12' 00""","81° 31' 00""","1/6/1973, 7:00 PM", ,E.T.E.S.A.,8.2,-81.5166666667, ,http://www.hidromet.com.pa/red_nacional.php,443091.1014,906444.8661,443091.10140000004,906444.8661000002
114-011,Llano Nopo,Chiriquí,Tipo C Automática,360,"8° 25' 00""","81° 37' 00""","1/9/1973, 7:00 PM", ,E.T.E.S.A.,8.41666666667,-81.6166666667, ,http://www.hidromet.com.pa/red_nacional.php,432113.3548,930414.942199999,432113.35479999986,930414.9421999995
114-012,Llano Limón,Chiriquí,Tipo B Convencional,150,"8° 15' 00""","81° 40' 00""","1/3/1981, 7:00 PM",1/5/1987,CODEMIN,8.25,-81.6666666667, , ,426577.7262,911997.202099999,426577.7262000004,911997.2020999994
115-013,Rio Indio,Panamá,Tipo C Convencional,88,"9° 13' 00""","79° 32' 00""","12/31/1911, 7:00 PM",1/12/1959,E.T.E.S.A.,9.21666666667,-79.5333333333, ,http://www.hidromet.com.pa/red_nacional.php,661126.9205,1019136.7471,661126.9205,1019136.7470999993
115-021,Buena Vista,Colón,Tipo B Convencional,70,"9° 17' 00""","79° 42' 00""","1/5/1970, 7:00 PM",1/12/1998,E.T.E.S.A.,9.28333333333,-79.7, ,http://www.hidromet.com.pa/red_nacional.php,642786.9566,1026438.3089,642786.9566000002,1026438.3089000005
115-022,Chilibre,Panamá,Tipo C Convencional,80,"9° 09' 00""","79° 37' 00""","1/9/1970, 7:00 PM",1/12/1998,E.T.E.S.A.,9.15,-79.6166666667, ,http://www.hidromet.com.pa/red_nacional.php,651998.6451,1011727.6556,651998.6451000003,1011727.6556000002
115-070,Ciri Grande 1,Panamá,Tipo C Convencional,1120,"8° 39' 00""","80° 05' 00""","12/31/1940, 7:00 PM",1/12/1958,E.T.E.S.A.,8.65,-80.0833333333, ,http://www.hidromet.com.pa/red_nacional.php,600853.5996,956278.8596,600853.5996000003,956278.8596000001
115-081,El Cacao,Panamá,Tipo C Mixta,180,"8° 46' 00""","80° 01' 00""","1/4/1974, 7:00 PM", ,E.T.E.S.A.,8.76666666667,-80.0166666667, ,http://www.hidromet.com.pa/red_nacional.php,608155.5521,969197.1196,608155.5521,969197.1195999999
115-083,Ciri Grande,Panamá,Tipo C Convencional,200,"8° 46' 00""","80° 03' 00""","1/6/1974, 7:00 PM", ,E.T.E.S.A.,8.76666666667,-80.05, ,http://www.hidromet.com.pa/red_nacional.php,604488.934,969187.690400001,604488.9340000004,969187.6904000007
115-084,Zanguenga,Panamá,Tipo C Convencional,100,"8° 58' 00""","79° 53' 00""","1/11/1974, 7:00 PM",1/12/1998,E.T.E.S.A.,8.96666666667,-79.8833333333, ,http://www.hidromet.com.pa/red_nacional.php,622755.9445,991353.4015,622755.9445000002,991353.4014999997
115-087,Omar Torrijos H.,Colón,Tipo B Convencional,60,"9° 14' 00""","79° 46' 00""","1/8/1989, 7:00 PM",1/9/1989,E.T.E.S.A.,9.23333333333,-79.7666666667, ,http://www.hidromet.com.pa/red_nacional.php,635482.5915,1020883.0247,635482.5915000001,1020883.0247000009
115-122,Gatun Valle Central,Panamá,Tipo C Automática,200,"9° 22' 33""","79° 38' 19""",, ,E.T.E.S.A.,9.37583333333,-79.6386111111,Inactive,http://www.hidromet.com.pa/red_nacional.php,649491.4471,1036693.0623,649491.4471000005,1036693.0623000003
116-001,Coiba,Veraguas,Tipo A Automática,8,"7° 29' 37""","81° 43' 10""","1/5/1971, 7:00 PM", ,E.T.E.S.A.,7.49361111111,-81.7194444444, ,http://www.hidromet.com.pa/red_nacional.php,420621.0252,828381.4443,420621.02520000003,828381.4442999996
116-002,Guarumal (MIDA),Veraguas,Tipo A Automática,47,"7° 48' 06""","81° 15' 16""","1/5/1973, 7:00 PM", ,E.T.E.S.A.,7.80166666667,-81.2544444444, ,http://www.hidromet.com.pa/red_nacional.php,471946.9551,862380.3541,471946.9550999999,862380.3541000001
117-001,Isla Grande,Colón,Tipo C Convencional,3,"9° 38' 00""","79° 34' 00""","12/31/1929, 7:00 PM",1/7/1970,E.T.E.S.A.,9.63333333333,-79.5666666667, ,http://www.hidromet.com.pa/red_nacional.php,657275.3947,1065202.226,657275.3947000001,1065202.2259999998
117-002,Portobelo,Colón,Tipo C Mixta,2,"9° 33' 00""","79° 40' 00""","1/4/1908, 6:40 PM",1/1/2004,E.T.E.S.A.,9.55,-79.6666666667, ,http://www.hidromet.com.pa/red_nacional.php,646336.4806,1055942.0983,646336.4806000004,1055942.0983000007
117-004,Bahia Las Minas,Colón,Tipo A Automática,7,"9° 22' 00""","79° 50' 00""","1/11/1967, 7:00 PM",31/12/1975,E.T.E.S.A.,9.36666666667,-79.8333333333, ,http://www.hidromet.com.pa/red_nacional.php,628109.69,1035602.5285,628109.6900000004,1035602.5285
117-005,Colon,Colón,Tipo C Convencional,5,"9° 22' 00""","79° 54' 00""","1/11/1970, 7:00 PM",1/8/1975,E.T.E.S.A.,9.36666666667,-79.9, ,http://www.hidromet.com.pa/red_nacional.php,620788.2527,1035578.9555,620788.2527000001,1035578.9554999992
117-006,Maria Chiquita,Colón,Tipo B Convencional,3,"9° 26' 00""","79° 45' 00""","1/4/1972, 7:00 PM",1/6/1974,E.T.E.S.A.,9.43333333333,-79.75, ,http://www.hidromet.com.pa/red_nacional.php,637235.4469,1043006.2621,637235.4468999999,1043006.2620999999
117-007,El Porvenir 1,Guna Yala,Tipo B Convencional,2,"9° 33' 00""","78° 58' 00""","1/2/1973, 7:00 PM",1/3/1978,E.T.E.S.A.,9.55,-78.9666666667, ,http://www.hidromet.com.pa/red_nacional.php,723188.5422,1056316.8202,723188.5422,1056316.8202
117-010,Cristobal,Colón,Tipo C Mixta,12,"9° 21' 00""","79° 54' 00""",, ,E.T.E.S.A.,9.35,-79.9, ,http://www.hidromet.com.pa/red_nacional.php,620794.007,1033735.9749,620794.0070000002,1033735.9748999998
117-011,Nombre de Dios,Colón,Tipo B Convencional,3,"9° 35' 00""","79° 28' 00""","4/30/1911, 7:00 PM",1/12/1998,E.T.E.S.A.,9.58333333333,-79.4666666667, ,http://www.hidromet.com.pa/red_nacional.php,668275.2129,1059719.8536,668275.2128999997,1059719.853599999
117-012,San Pedro (Refineria),Colón,Tipo C Convencional,9,"9° 23' 00""","79° 49' 00""","1/11/1978, 7:00 PM", ,E.T.E.S.A.,9.38333333333,-79.8166666667, ,http://www.hidromet.com.pa/red_nacional.php,629933.8734,1037451.6717,629933.8733999999,1037451.6717000008
117-013,San Antonio (Colón),Colón,Tipo C Mixta,0,"9° 33' 42""","78° 34' 06""",, ,E.T.E.S.A.,9.56166666667,-78.5683333333, ,http://www.hidromet.com.pa/red_nacional.php,766925.3818,1057890.7452,766925.3817999996,1057890.7452000007
117-014,El Porvenir 2,Guna Yala,Tipo A Automática,0,"9° 33' 25""","78° 56' 53""",, ,E.T.E.S.A.,9.55694444444,-78.9480555556, ,http://www.hidromet.com.pa/red_nacional.php,725227.6472,1057097.164,725227.6471999995,1057097.1640000008
118-001,El Cobrizo,Veraguas,Tipo C Mixta,400,"8° 27' 00""","81° 23' 00""","1/4/1958, 7:00 PM", ,E.T.E.S.A.,8.45,-81.3833333333, ,http://www.hidromet.com.pa/red_nacional.php,457804.2912,934067.340399999,457804.29119999986,934067.3403999992
118-002,Canazas,Veraguas,Tipo B Convencional,200,"8° 19' 00""","81° 13' 00""","1/4/1956, 7:00 PM", ,E.T.E.S.A.,8.31666666667,-81.2166666667, ,http://www.hidromet.com.pa/red_nacional.php,476142.2412,919312.6373,476142.24120000005,919312.6372999996
118-003,Sona,Veraguas,Tipo C Convencional,20,"8° 01' 00""","81° 18' 00""","1/10/1955, 7:00 PM",1/12/1998,E.T.E.S.A.,8.01666666667,-81.3, ,http://www.hidromet.com.pa/red_nacional.php,466941.4417,886152.447799999,466941.4417000003,886152.4477999993
118-004,El Higo,Veraguas,Tipo C Convencional,17,"8° 12' 00""","81° 19' 00""","12/31/1961, 7:00 PM",1/12/1964,E.T.E.S.A.,8.2,-81.3166666667, ,http://www.hidromet.com.pa/red_nacional.php,465120.6375,906422.016000001,465120.6375000002,906422.0160000008
118-005,El Maria,Veraguas,Tipo C Convencional,180,"8° 02' 00""","81° 27' 00""","1/8/1972, 7:00 PM",1/3/2000,E.T.E.S.A.,8.03333333333,-81.45, ,http://www.hidromet.com.pa/red_nacional.php,450413.9088,888010.1187,450413.9088000003,888010.1186999995
118-006,Agua de Salud,Veraguas,Tipo C Mixta,800,"8° 30' 00""","81° 27' 00""","12/31/1992, 7:00 PM", ,E.T.E.S.A.,8.5,-81.45, ,http://www.hidromet.com.pa/red_nacional.php,450472.1712,939603.0547,450472.17119999975,939603.0547000002
118-007,Cerro Plata,Veraguas,Tipo C Convencional,130,"8° 17' 00""","81° 22' 00""","1/10/1972, 7:00 PM",1/12/1998,E.T.E.S.A.,8.28333333333,-81.3666666667, ,http://www.hidromet.com.pa/red_nacional.php,459621.7538,915639.6204,459621.75380000006,915639.6204000004
118-008,Boro,Veraguas,Tipo C Convencional,200,"8° 10' 00""","81° 18' 00""","1/8/1972, 7:00 PM",1/3/2000,E.T.E.S.A.,8.16666666667,-81.3, ,http://www.hidromet.com.pa/red_nacional.php,466953.6635,902735.4736,466953.6634999998,902735.4736000001
118-009,Cative,Veraguas,Tipo C Convencional,160,"7° 55' 03""","81° 22' 43""","1/11/1974, 7:00 PM", ,E.T.E.S.A.,7.9175,-81.3786111111, ,http://www.hidromet.com.pa/red_nacional.php,458268.7243,875196.3595,458268.7242999999,875196.3595000003
120-001,Cerro Redondo,Veraguas,Tipo C Convencional,170,"8° 12' 00""","81° 12' 00""","1/11/1968, 7:00 PM",1/12/1998,E.T.E.S.A.,8.2,-81.2, ,http://www.hidromet.com.pa/red_nacional.php,477970.9941,906413.7521,477970.9940999998,906413.7521000002
120-002,Santiago,Veraguas,Tipo A Mixta,80,"8° 05' 12""","80° 58' 40""","1/4/1955, 7:00 PM", ,E.T.E.S.A.,8.08666666667,-80.9777777778, ,http://www.hidromet.com.pa/red_nacional.php,502448.3509,893879.0722,502448.35089999996,893879.0722000003
120-003,Montijo,Veraguas,Tipo B Convencional,50,"7° 59' 00""","81° 04' 00""","1/11/1970, 7:00 PM",1/3/2000,E.T.E.S.A.,7.98333333333,-81.0666666667, ,http://www.hidromet.com.pa/red_nacional.php,492653.0878,882455.9198,492653.08779999986,882455.9198000003
120-004,Canto Del Llano,Veraguas,Tipo C Convencional,150,"8° 07' 00""","80° 58' 00""","1/3/1963, 7:00 PM",1/12/1998,E.T.E.S.A.,8.11666666667,-80.9666666667, ,http://www.hidromet.com.pa/red_nacional.php,503672.2546,897195.7191,503672.25459999964,897195.7191000003
120-005,El Maranon,Veraguas,Tipo C Convencional,50,"8° 02' 00""","81° 13' 00""","1/8/1972, 7:00 PM", ,E.T.E.S.A.,8.03333333333,-81.2166666667, ,http://www.hidromet.com.pa/red_nacional.php,476125.3978,887989.214299999,476125.3978000004,887989.2142999992
120-006,Trinidad Arriba,Veraguas,Tipo C Convencional,35,"7° 56' 00""","81° 09' 00""","1/11/1974, 7:00 PM",1/12/1998,E.T.E.S.A.,7.93333333333,-81.15, ,http://www.hidromet.com.pa/red_nacional.php,483467.4294,876930.7468,483467.4293999998,876930.7467999998
121-001,Nargana (kuna Yala),Guna Yala,Tipo C Convencional,2,"9° 25' 00""","78° 36' 00""","12/31/1952, 7:00 PM", ,E.T.E.S.A.,9.41666666667,-78.6, ,http://www.hidromet.com.pa/red_nacional.php,763558.2321,1041821.7408,763558.2320999997,1041821.7408000007
121-002,Cangandi (kuna Yala),Guna Yala,Tipo C Convencional,70,"9° 26' 00""","79° 07' 00""","12/31/1920, 7:00 PM",1/12/1925,E.T.E.S.A.,9.43333333333,-79.1166666667, ,http://www.hidromet.com.pa/red_nacional.php,706787.9244,1043318.0537,706787.9243999999,1043318.0537
121-004,Puerto Obaldia,Guna Yala,Tipo B Convencional,2,"8° 40' 00""","77° 24' 00""","1/1/1973, 7:00 PM",1/7/1982,E.T.E.S.A.,8.66666666667,-77.4, ,http://www.hidromet.com.pa/red_nacional.php,896296.5814,959877.9965,896296.5813999996,959877.9965000004
121-005,Ailigandi (kuna Yala),Guna Yala,Tipo A Convencional,10,"9° 14' 00""","78° 02' 00""","1/2/1973, 7:00 PM",1/9/1985,E.T.E.S.A.,9.23333333333,-78.0333333333, ,http://www.hidromet.com.pa/red_nacional.php,826005.6506,1022004.1715,826005.6506000003,1022004.1714999992
121-006,Mulatupo (kuna Yala),Guna Yala,Tipo A Mixta,2,"8° 56' 35""","77° 45' 18""","1/9/1974, 7:00 PM", ,E.T.E.S.A.,8.94305555556,-77.755, ,http://www.hidromet.com.pa/red_nacional.php,856909.3409,990128.980599999,856909.3409000002,990128.9805999994
121-007,Carti (kuna Yala),Guna Yala,Tipo C Automática,385,"9° 18' 00""","78° 59' 00""","1/7/1984, 7:00 PM", ,E.T.E.S.A.,9.3,-78.9833333333, ,http://www.hidromet.com.pa/red_nacional.php,721517.8786,1028649.8102,721517.8786000004,1028649.8102000002
121-008,La Miel (Irenare),Guna Yala,Tipo B Convencional,10,"8° 40' 00""","77° 22' 00""","1/8/1986, 7:00 PM",10/10/2000,A.N.A.M.,8.66666666667,-77.3666666667,Inactive,http://www.anam.gob.pa/,899970.7051,959912.991,899970.7050999999,959912.9910000004
121-009,Mulatupo 2,Guna Yala,Tipo A Automática,2,"8° 56' 35""","77° 45' 18""",, ,E.T.E.S.A.,8.94305555556,-77.755, ,http://www.hidromet.com.pa/red_nacional.php,856909.3409,990128.980599999,856909.3409000002,990128.9805999994
122-001,Mariato (vieja),Veraguas,Tipo C Convencional,100,"7° 37' 00""","80° 58' 00""","12/31/1919, 7:00 PM",1/6/1939,E.T.E.S.A.,7.61666666667,-80.9666666667, ,http://www.hidromet.com.pa/red_nacional.php,503676.656,841920.2861,503676.6560000004,841920.2861000001
122-002,Ponuga,Veraguas,Tipo C Convencional,40,"7° 53' 00""","80° 58' 00""","1/8/1972, 7:00 PM",1/3/2000,E.T.E.S.A.,7.88333333333,-80.9666666667, ,http://www.hidromet.com.pa/red_nacional.php,503674.3432,871400.353399999,503674.3432,871400.3533999994
122-003,Arenas de Quebro,Veraguas,Tipo C Convencional,8,"7° 22' 00""","80° 51' 00""","1/10/1972, 7:00 PM",1/3/2000,E.T.E.S.A.,7.36666666667,-80.85, ,http://www.hidromet.com.pa/red_nacional.php,516554.4031,814285.693299999,516554.40309999976,814285.6932999995
122-004,Mariato,Veraguas,Tipo C Convencional,23,"7° 39' 00""","80° 59' 00""","1/10/1972, 7:00 PM", ,E.T.E.S.A.,7.65,-80.9833333333, ,http://www.hidromet.com.pa/red_nacional.php,501838.1855,845605.1677,501838.1854999997,845605.1677000001
122-005,Guanico Abajo,Los Santos,Tipo C Convencional,10,"7° 18' 00""","80° 26' 00""","1/3/1974, 7:00 PM",1/12/1998,E.T.E.S.A.,7.3,-80.4333333333, ,http://www.hidromet.com.pa/red_nacional.php,562549.0836,806952.342900001,562549.0835999995,806952.3429000005
122-006,Chepo (Esc.granja),Herrera,Tipo B Convencional,680,"7° 43' 00""","80° 50' 00""","1/5/1975, 7:00 PM", ,E.T.E.S.A.,7.71666666667,-80.8333333333, ,http://www.hidromet.com.pa/red_nacional.php,518379.0139,852978.714,518379.01389999967,852978.7139999997
122-007,Cambutal,Los Santos,Tipo A Automática,0,"7° 16' 18""","80° 29' 21""",, ,E.T.E.S.A.,7.27166666667,-80.4891666667, ,http://www.hidromet.com.pa/red_nacional.php,556389.5332,803812.667300001,556389.5332000004,803812.6673000008
124-001,Tonosi I,Los Santos,Tipo C Convencional,15,"7° 23' 00""","80° 27' 00""","12/31/1923, 7:00 PM",1/5/1997,E.T.E.S.A.,7.38333333333,-80.45, ,http://www.hidromet.com.pa/red_nacional.php,560698.0475,816162.8259,560698.0475000003,816162.8258999996
124-002,La Llana,Los Santos,Tipo C Convencional,60,"7° 30' 00""","80° 33' 00""","1/8/1966, 7:00 PM", ,E.T.E.S.A.,7.5,-80.55, ,http://www.hidromet.com.pa/red_nacional.php,549648.6733,829048.1807,549648.6732999999,829048.1807000004
124-004,Tonosi,Los Santos,Tipo B Convencional,12,"7° 24' 00""","80° 27' 00""","1/5/1971, 7:00 PM", ,E.T.E.S.A.,7.4,-80.45, ,http://www.hidromet.com.pa/red_nacional.php,560695.772,818005.382200001,560695.7719999999,818005.3822000008
124-005,El Cortezo,Los Santos,Tipo C Convencional,150,"7° 25' 00""","80° 38' 00""","1/3/1974, 7:00 PM",1/3/2000,E.T.E.S.A.,7.41666666667,-80.6333333333, ,http://www.hidromet.com.pa/red_nacional.php,540461.9916,819827.0483,540461.9916000003,819827.0482999999
124-006,Altos de Guera,Los Santos,Tipo C Convencional,220,"7° 33' 00""","80° 37' 00""","1/3/1974, 7:00 PM",30/12/1998,E.T.E.S.A.,7.55,-80.6166666667, ,http://www.hidromet.com.pa/red_nacional.php,542288.3551,834568.7731,542288.3551000003,834568.7730999999
124-007,Cerro Quema,Los Santos,Tipo A Automática,0,"7° 35' 51""","80° 28' 26""",, ,E.T.E.S.A.,7.5975,-80.4738888889, ,http://www.hidromet.com.pa/red_nacional.php,558033.2515,839836.5068,558033.2515000002,839836.5067999996
126-001,Las Tablas,Los Santos,Tipo C Convencional,43,"7° 46' 00""","80° 17' 00""","1/6/1958, 7:00 PM",1/12/1998,E.T.E.S.A.,7.76666666667,-80.2833333333, ,http://www.hidromet.com.pa/red_nacional.php,579022.3367,858569.4244,579022.3366999999,858569.4243999999
126-002,Pocri,Los Santos,Tipo C Convencional,70,"7° 40' 00""","80° 07' 00""","1/6/1970, 7:00 PM", ,E.T.E.S.A.,7.66666666667,-80.1166666667, ,http://www.hidromet.com.pa/red_nacional.php,597423.7931,847547.824100001,597423.7931000004,847547.8241000008
126-003,Bayano,Los Santos,Tipo C Convencional,260,"7° 38' 00""","80° 22' 00""",,1/11/1971,E.T.E.S.A.,7.63333333333,-80.3666666667, ,http://www.hidromet.com.pa/red_nacional.php,569855.1389,843813.9234,569855.1388999997,843813.9233999997
126-005,Pedasi,Los Santos,Tipo B Convencional,47,"7° 31' 00""","80° 01' 00""","1/5/1967, 7:00 PM", ,E.T.E.S.A.,7.51666666667,-80.0166666667, ,http://www.hidromet.com.pa/red_nacional.php,608491.5073,830987.0107,608491.5072999997,830987.0107000005
126-006,La Palma,Los Santos,Tipo B Convencional,39,"7° 42' 00""","80° 12' 00""","1/11/1966, 7:00 PM",1/12/1998,E.T.E.S.A.,7.7,-80.2, ,http://www.hidromet.com.pa/red_nacional.php,588225.3789,851215.1545,588225.3788999999,851215.1545000002
126-007,Las Cruces,Los Santos,Tipo C Convencional,84,"7° 49' 00""","80° 26' 00""","1/11/1966, 7:00 PM",1/12/1998,E.T.E.S.A.,7.81666666667,-80.4333333333, ,http://www.hidromet.com.pa/red_nacional.php,562474.7735,864072.1752,562474.7735000001,864072.1752000004
126-008,Los Angeles,Los Santos,Tipo C Convencional,32,"7° 53' 00""","80° 21' 00""","1/11/1966, 7:00 PM",1/3/2000,E.T.E.S.A.,7.88333333333,-80.35, ,http://www.hidromet.com.pa/red_nacional.php,571651.1771,871455.9529,571651.1771,871455.9528999999
126-009,Las Trancas,Los Santos,Tipo C Convencional,150,"7° 44' 00""","80° 22' 00""","1/8/1967, 7:00 PM",1/3/2000,E.T.E.S.A.,7.73333333333,-80.3666666667, ,http://www.hidromet.com.pa/red_nacional.php,569838.7995,854869.5679,569838.7994999997,854869.5679000001
126-010,Valle Rico,Los Santos,Tipo B Convencional,173,"7° 37' 00""","80° 21' 00""","1/5/1972, 7:00 PM", ,E.T.E.S.A.,7.61666666667,-80.35, ,http://www.hidromet.com.pa/red_nacional.php,571696.2814,841974.050000001,571696.2813999997,841974.0500000007
126-011,Los Asientos,Los Santos,Tipo C Convencional,150,"7° 31' 00""","80° 08' 00""","1/5/1972, 7:00 PM",1/12/1998,E.T.E.S.A.,7.51666666667,-80.1333333333, ,http://www.hidromet.com.pa/red_nacional.php,595618.6147,830959.821900001,595618.6146999998,830959.8219000008
126-012,La Miel,Los Santos,Tipo C Convencional,220,"7° 33' 00""","80° 20' 00""","1/5/1972, 7:00 PM", ,E.T.E.S.A.,7.55,-80.3333333333, ,http://www.hidromet.com.pa/red_nacional.php,573546.0452,834606.4066,573546.0451999996,834606.4066000003
126-013,El Canafistulo,Los Santos,Tipo C Convencional,140,"7° 37' 00""","80° 13' 00""","1/6/1972, 7:00 PM", ,E.T.E.S.A.,7.61666666667,-80.2166666667, ,http://www.hidromet.com.pa/red_nacional.php,586404.0253,841998.4352,586404.0252999999,841998.4352000002
126-014,Punta Mala,Los Santos,Tipo C Convencional,50,"7° 28' 00""","80° 00' 00""","12/31/1917, 7:00 PM",1/12/1943,E.T.E.S.A.,7.46666666667,-80, ,http://www.hidromet.com.pa/red_nacional.php,610343.1078,825462.9102,610343.1078000003,825462.9101999998
126-015,Canas,Los Santos,Tipo C Convencional,8,"7° 27' 00""","80° 16' 00""","1/3/1974, 7:00 PM", ,E.T.E.S.A.,7.45,-80.2666666667, ,http://www.hidromet.com.pa/red_nacional.php,580919.4933,823562.4373,580919.4933000002,823562.4373000003
126-016,El Ejido,Los Santos,Tipo C Convencional,30,"7° 55' 00""","80° 23' 00""","1/9/1976, 7:00 PM",1/12/1998,E.T.E.S.A.,7.91666666667,-80.3833333333, ,http://www.hidromet.com.pa/red_nacional.php,567971.1648,875135.622400001,567971.1648000004,875135.6224000007
126-017,Guararé,Los Santos,Tipo A Convencional,10,"7° 49' 00""","80° 17' 00""","1/4/1980, 7:00 PM", ,A.N.A.M.,7.81666666667,-80.2833333333,Active,http://www.anam.gob.pa/,579012.9622,864097.3661,579012.9622,864097.3661000002
126-018,Cape Mala (pta),Los Santos,Tipo C Automática,0,"7° 28' 00""","80° 00' 00""",,17/07/2009,E.T.E.S.A.,7.46666666667,-80, ,http://www.hidromet.com.pa/red_nacional.php,610343.1078,825462.9102,610343.1078000003,825462.9101999998
128-001,Los Santos,Los Santos,Tipo A Convencional,16,"7° 57' 00""","80° 25' 00""","1/9/1964, 7:00 PM", ,E.T.E.S.A.,7.95,-80.4166666667, ,http://www.hidromet.com.pa/red_nacional.php,564291.7426,878815.5474,564291.7426000005,878815.5473999996
128-002,Atalayita,Los Santos,Tipo B Convencional,20,"7° 52' 00""","80° 32' 00""","1/11/1964, 7:00 PM",1/12/1976,E.T.E.S.A.,7.86666666667,-80.5333333333, ,http://www.hidromet.com.pa/red_nacional.php,551443.4089,869586.3665,551443.4089000002,869586.3664999995
128-003,Las Minas,Herrera,Tipo C Convencional,350,"7° 47' 00""","80° 44' 00""","1/8/1959, 7:00 PM",1/3/2000,E.T.E.S.A.,7.78333333333,-80.7333333333, ,http://www.hidromet.com.pa/red_nacional.php,529401.8593,860354.406400001,529401.8592999997,860354.4064000007
128-004,Macaracas (MIDA),Los Santos,Tipo A Mixta,111,"7° 44' 37""","80° 33' 09""","1/4/1955, 7:00 PM", ,E.T.E.S.A.,7.74361111111,-80.5525, ,http://www.hidromet.com.pa/red_nacional.php,549344.9422,855979.8015,549344.9422000004,855979.8015000001
128-005,La Mesa de Macaracas,Los Santos,Tipo C Convencional,180,"7° 38' 00""","80° 37' 00""","1/4/1959, 7:00 PM",1/12/1998,E.T.E.S.A.,7.63333333333,-80.6166666667, ,http://www.hidromet.com.pa/red_nacional.php,542280.2121,843781.4252,542280.2121000001,843781.4252000004
128-006,Los Pozos,Herrera,Tipo C Convencional,260,"7° 47' 00""","80° 39' 00""","1/2/1967, 7:00 PM",1/12/1998,E.T.E.S.A.,7.78333333333,-80.65, ,http://www.hidromet.com.pa/red_nacional.php,538590.038,860361.102700001,538590.0379999997,860361.1027000006
128-010,Pese,Herrera,Tipo C Convencional,80,"7° 54' 00""","80° 37' 00""","1/6/1972, 7:00 PM", ,E.T.E.S.A.,7.9,-80.6166666667, ,http://www.hidromet.com.pa/red_nacional.php,542253.557,873262.150699999,542253.557,873262.1506999992
128-011,Llano de Piedra,Los Santos,Tipo C Convencional,150,"7° 39' 00""","80° 34' 00""","1/7/1972, 7:00 PM",1/3/2000,E.T.E.S.A.,7.65,-80.5666666667, ,http://www.hidromet.com.pa/red_nacional.php,547793.2654,845629.1918,547793.2653999999,845629.1918000001
128-012,Pitaloza Arriba,Herrera,Tipo C Convencional,380,"7° 38' 00""","80° 40' 00""","1/10/1972, 7:00 PM",1/3/2000,E.T.E.S.A.,7.63333333333,-80.6666666667, ,http://www.hidromet.com.pa/red_nacional.php,536765.3368,843776.843599999,536765.3367999997,843776.8435999993
128-013,Tumaco Arriba,Los Santos,Tipo C Convencional,460,"7° 37' 00""","80° 40' 00""","1/3/1967, 7:00 PM",1/11/1971,E.T.E.S.A.,7.61666666667,-80.6666666667, ,http://www.hidromet.com.pa/red_nacional.php,536766.7592,841934.3202,536766.7592000002,841934.3202
128-015,Chitre,Herrera,Tipo C Convencional,10,"7° 58' 00""","80° 26' 00""","12/31/1953, 7:00 PM",1/12/1959,E.T.E.S.A.,7.96666666667,-80.4333333333, ,http://www.hidromet.com.pa/red_nacional.php,562452.2536,880655.606899999,562452.2536000004,880655.6068999991
128-016,Pan de Azucar,Herrera,Tipo C Convencional,250,"7° 44' 00""","80° 42' 00""","1/3/1977, 7:00 PM", ,E.T.E.S.A.,7.73333333333,-80.7, ,http://www.hidromet.com.pa/red_nacional.php,533081.0296,854829.280400001,533081.0296,854829.2804000005
130-002,Parita (MIDA),Herrera,Tipo A Mixta,43,"8° 00' 02""","80° 31' 13""","1/11/1966, 7:00 PM", ,E.T.E.S.A.,8.00055555556,-80.5202777778, ,http://www.hidromet.com.pa/red_nacional.php,552865.5252,884390.0724,552865.5252,884390.0724
130-003,Llano de Los Reyes,Herrera,Tipo C Convencional,80,"7° 54' 00""","80° 40' 00""","12/31/1966, 7:00 PM",1/12/1998,E.T.E.S.A.,7.9,-80.6666666667, ,http://www.hidromet.com.pa/red_nacional.php,536742.1587,873257.4131,536742.1586999996,873257.4131000005
130-004,Llano de La Cruz,Herrera,Tipo C Convencional,60,"7° 57' 00""","80° 38' 00""","1/6/1972, 7:00 PM", ,E.T.E.S.A.,7.95,-80.6333333333, ,http://www.hidromet.com.pa/red_nacional.php,540411.5436,878788.165100001,540411.5436000004,878788.1651000008
130-005,Ocu,Herrera,Tipo C Convencional,130,"7° 57' 00""","80° 47' 00""","1/6/1958, 7:00 PM",1/12/1998,E.T.E.S.A.,7.95,-80.7833333333, ,http://www.hidromet.com.pa/red_nacional.php,523879.4458,878776.5252,523879.44579999987,878776.5252
130-006,Valle Rico de Ocu,Herrera,Tipo C Convencional,53,"7° 57' 00""","80° 47' 00""","12/31/2005, 7:00 PM", ,E.T.E.S.A.,7.95,-80.7833333333, ,http://www.hidromet.com.pa/red_nacional.php,523879.4458,878776.5252,523879.44579999987,878776.5252
132-001,El Palmar,Veraguas,Tipo C Convencional,1000,"8° 32' 00""","81° 04' 00""","1/7/1958, 7:00 PM", ,E.T.E.S.A.,8.53333333333,-81.0666666667, ,http://www.hidromet.com.pa/red_nacional.php,492663.2499,943260.085899999,492663.24990000017,943260.0858999994
132-003,Los Valles,Veraguas,Tipo C Convencional,550,"8° 27' 00""","81° 12' 00""","1/4/1958, 7:00 PM", ,E.T.E.S.A.,8.45,-81.2, ,http://www.hidromet.com.pa/red_nacional.php,477984.9627,934052.2444,477984.96270000003,934052.2444000002
132-004,Loma Llana,Veraguas,Tipo C Convencional,219,"8° 31' 00""","80° 55' 00""","1/1/1959, 7:00 PM",1/12/1998,E.T.E.S.A.,8.51666666667,-80.9166666667, ,http://www.hidromet.com.pa/red_nacional.php,509171.336,941417.8662,509171.3360000001,941417.8662
132-005,Sitio de Desvio,Veraguas,Tipo C Convencional,640,"8° 28' 00""","80° 51' 00""","1/9/1960, 7:00 PM",1/12/1987,E.T.E.S.A.,8.46666666667,-80.85, ,http://www.hidromet.com.pa/red_nacional.php,516510.5543,935892.347999999,516510.55429999996,935892.3479999993
132-006,Laguna La Yeguada,Veraguas,Tipo B Convencional,640,"8° 27' 00""","80° 51' 00""","1/6/1960, 7:00 PM", ,E.T.E.S.A.,8.45,-80.85, ,http://www.hidromet.com.pa/red_nacional.php,516511.2638,934049.7741,516511.26379999984,934049.7741
132-007,Laguna San Juan,Veraguas,Tipo C Convencional,800,"8° 29' 00""","80° 50' 00""","1/8/1960, 7:00 PM",1/12/1998,E.T.E.S.A.,8.48333333333,-80.8333333333, ,http://www.hidromet.com.pa/red_nacional.php,518344.2751,937735.6712,518344.2751000002,937735.6711999997
132-008,Cerro Verde,Veraguas,Tipo C Convencional,800,"8° 31' 00""","80° 50' 00""","1/9/1959, 7:00 PM", ,E.T.E.S.A.,8.51666666667,-80.8333333333, ,http://www.hidromet.com.pa/red_nacional.php,518342.6906,941420.829500001,518342.6906000003,941420.8295000009
132-009,El Flor,Veraguas,Tipo C Convencional,550,"8° 27' 00""","80° 51' 00""","1/4/1960, 7:00 PM",1/3/2000,E.T.E.S.A.,8.45,-80.85, ,http://www.hidromet.com.pa/red_nacional.php,516511.2638,934049.7741,516511.26379999984,934049.7741
132-010,Calobre,Veraguas,Tipo C Convencional,120,"8° 19' 00""","80° 50' 00""","1/3/1959, 7:00 PM", ,E.T.E.S.A.,8.31666666667,-80.8333333333, ,http://www.hidromet.com.pa/red_nacional.php,518352.1049,919309.973300001,518352.1048999997,919309.9733000007
132-012,Divisa,Herrera,Tipo B Convencional,12,"8° 06' 00""","80° 41' 00""","1/5/1964, 7:00 PM", ,E.T.E.S.A.,8.1,-80.6833333333, ,http://www.hidromet.com.pa/red_nacional.php,534888.0247,895366.6173,534888.0247,895366.6173
132-013,Los Canelos,Herrera,Tipo C Convencional,25,"8° 07' 00""","80° 42' 00""","1/7/1961, 7:00 PM",1/12/1998,E.T.E.S.A.,8.11666666667,-80.7, ,http://www.hidromet.com.pa/red_nacional.php,533050.4354,897207.7848,533050.4353999998,897207.7848000005
132-014,San Francisco,Veraguas,Tipo B Convencional,87,"8° 15' 00""","80° 58' 00""","1/4/1955, 7:00 PM",1/4/1999,E.T.E.S.A.,8.25,-80.9666666667, ,http://www.hidromet.com.pa/red_nacional.php,503671.0339,911936.059900001,503671.03390000015,911936.0599000007
132-016,San Juan (san Fsco),Veraguas,Tipo C Convencional,100,"8° 18' 00""","81° 01' 00""","1/11/1968, 7:00 PM",1/3/2000,E.T.E.S.A.,8.3,-81.0166666667, ,http://www.hidromet.com.pa/red_nacional.php,498164.7145,917463.597200001,498164.71449999977,917463.5972000007
132-017,Casa Maquina,Veraguas,Tipo C Convencional,270,"8° 24' 00""","80° 51' 00""","1/11/1968, 7:00 PM",1/2/2000,E.T.E.S.A.,8.4,-80.85, ,http://www.hidromet.com.pa/red_nacional.php,516513.3841,928522.062100001,516513.3841000004,928522.0621000007
132-018,Santa Rosa del Espino,Veraguas,Tipo C Convencional,55,"8° 06' 00""","80° 48' 00""","1/11/1968, 7:00 PM",1/12/1998,E.T.E.S.A.,8.1,-80.8, ,http://www.hidromet.com.pa/red_nacional.php,522034.4767,895358.4515,522034.47670000046,895358.4515000004
132-021,Ingenio La Estrella,Coclé,Tipo C Convencional,12,"8° 21' 00""","80° 33' 00""","12/31/1996, 7:00 PM",1/3/1997,Ingenio La Estrella,8.35,-80.55, , ,549546.9123,923019.4804,549546.9123,923019.4803999998
132-033,Santa Fe,Veraguas,Tipo B Convencional,463,"8° 28' 00""","81° 05' 00""","1/4/1956, 7:00 PM", ,E.T.E.S.A.,8.46666666667,-81.0833333333, ,http://www.hidromet.com.pa/red_nacional.php,490827.4768,935890.148,490827.4768000003,935890.148
132-034,La Raya de Santa Maria,Herrera,Tipo B Convencional,43,"8° 08' 00""","80° 48' 00""","1/9/1971, 7:00 PM",1/10/1975,E.T.E.S.A.,8.13333333333,-80.8, ,http://www.hidromet.com.pa/red_nacional.php,522032.6605,899043.545700001,522032.66050000023,899043.5457000006
132-035,Ingenio Santa Rosa,Coclé,Tipo B Convencional,26,"8° 11' 00""","80° 40' 00""","12/31/1925, 7:00 PM",1/3/2000,Ingenio Santa Rosa,8.18333333333,-80.6666666667, , ,536716.6653,904580.928099999,536716.6653000005,904580.9280999992
132-036,Cuaycito,Veraguas,Tipo C Convencional,500,"8° 27' 00""","81° 06' 00""","1/10/1972, 7:00 PM",1/12/1998,E.T.E.S.A.,8.45,-81.1, ,http://www.hidromet.com.pa/red_nacional.php,488992.4975,934048.0097,488992.4974999996,934048.0097000003
132-037,Ingenio La Victoria,Veraguas,Tipo B Convencional,30,"8° 12' 00""","80° 48' 00""","1/5/1977, 7:00 PM",1/12/1998,Ingenio La Victoria,8.2,-80.8, , ,522029.0059,906413.7521,522029.0059000002,906413.7521000002
132-038,Los Valles (IRENARE),Veraguas,Tipo B Convencional,580,"8° 26' 00""","81° 11' 00""","1/3/1981, 7:00 PM", ,A.N.A.M.,8.43333333333,-81.1833333333,Active,http://www.anam.gob.pa/,479818.69,932208.7673,479818.6900000004,932208.7673000004
134-001,El Cortezo,Coclé,Tipo C Convencional,60,"8° 21' 00""","80° 36' 00""","1/4/1955, 7:00 PM",1/12/1998,E.T.E.S.A.,8.35,-80.6, ,http://www.hidromet.com.pa/red_nacional.php,544041.6082,923013.550100001,544041.6081999997,923013.5501000006
134-002,El Harino,Coclé,Tipo C Convencional,185,"8° 37' 00""","80° 33' 00""","1/4/1955, 7:00 PM",1/12/1998,E.T.E.S.A.,8.61666666667,-80.55, ,http://www.hidromet.com.pa/red_nacional.php,549512.7528,952501.4778,549512.7527999999,952501.4778000005
134-003,Rio Grande,Coclé,Tipo C Convencional,20,"8° 25' 00""","80° 29' 00""","1/4/1955, 7:00 PM", ,E.T.E.S.A.,8.41666666667,-80.4833333333, ,http://www.hidromet.com.pa/red_nacional.php,556877.6847,930399.004699999,556877.6847000001,930399.0046999995
134-004,El Cope,Coclé,Tipo B Convencional,400,"8° 38' 00""","80° 35' 00""","1/10/1969, 7:00 PM", ,E.T.E.S.A.,8.63333333333,-80.5833333333, ,http://www.hidromet.com.pa/red_nacional.php,545843.0673,954339.952199999,545843.0673000002,954339.9521999992
134-005,La Pintada,Coclé,Tipo C Convencional,60,"8° 35' 00""","80° 27' 00""","1/11/1969, 7:00 PM",1/3/2000,E.T.E.S.A.,8.58333333333,-80.45, ,http://www.hidromet.com.pa/red_nacional.php,560521.1724,948830.5386,560521.1723999996,948830.5385999996
134-008,Sonadora,Coclé,Tipo C Convencional,168,"8° 33' 00""","80° 20' 00""","1/4/1955, 7:00 PM", ,E.T.E.S.A.,8.55,-80.3333333333, ,http://www.hidromet.com.pa/red_nacional.php,573365.8933,945165.487400001,573365.8932999996,945165.4874000009
134-019,Las Huacas de Quije,Coclé,Tipo C Convencional,440,"8° 28' 00""","80° 45' 00""","1/10/1972, 7:00 PM", ,E.T.E.S.A.,8.46666666667,-80.75, ,http://www.hidromet.com.pa/red_nacional.php,527517.6443,935898.005000001,527517.6442999998,935898.0050000008
134-020,Rio Hondo,Coclé,Tipo C Convencional,22,"8° 22' 00""","80° 22' 00""","1/7/1972, 7:00 PM", ,E.T.E.S.A.,8.36666666667,-80.3666666667, ,http://www.hidromet.com.pa/red_nacional.php,569730.4085,924889.862,569730.4084999999,924889.8619999997
134-021,Las Lajas,Coclé,Tipo C Convencional,55,"8° 28' 00""","80° 22' 00""","1/10/1972, 7:00 PM",1/12/1998,E.T.E.S.A.,8.46666666667,-80.3666666667, ,http://www.hidromet.com.pa/red_nacional.php,569712.5197,935945.8958,569712.5197000001,935945.8958
134-022,Puerto Posada,Coclé,Tipo C Convencional,15,"8° 22' 00""","80° 24' 00""","1/7/1972, 7:00 PM", ,E.T.E.S.A.,8.36666666667,-80.4, ,http://www.hidromet.com.pa/red_nacional.php,566060.2541,924884.114,566060.2540999996,924884.1140000001
134-023,Las Sabanas,Coclé,Tipo C Convencional,700,"8° 34' 00""","80° 41' 00""","1/10/1972, 7:00 PM", ,E.T.E.S.A.,8.56666666667,-80.6833333333, ,http://www.hidromet.com.pa/red_nacional.php,534846.6979,946958.9497,534846.6979,946958.9496999998
134-024,Ola,Coclé,Tipo C Convencional,100,"8° 25' 00""","80° 39' 00""","1/6/1974, 7:00 PM", ,E.T.E.S.A.,8.41666666667,-80.65, ,http://www.hidromet.com.pa/red_nacional.php,538529.7722,930378.6928,538529.7721999995,930378.6928000003
134-025,Llano Grande,Coclé,Tipo C Convencional,100,"8° 38' 00""","80° 27' 00""","1/6/1974, 7:00 PM",1/12/1998,E.T.E.S.A.,8.63333333333,-80.45, ,http://www.hidromet.com.pa/red_nacional.php,560513.2295,954358.5294,560513.2295000004,954358.5294000003
134-026,Churuquita Grande,Coclé,Tipo C Convencional,200,"8° 37' 00""","80° 16' 00""","1/3/1977, 7:00 PM",1/3/2000,E.T.E.S.A.,8.61666666667,-80.2666666667, ,http://www.hidromet.com.pa/red_nacional.php,580688.7697,952549.7137,580688.7697000001,952549.7137000002
134-027,Ing. Enrique Ensenat,Coclé,Tipo B Convencional,10,"8° 14' 00""","80° 30' 00""","1/9/1984, 7:00 PM",1/4/1993,Acuicultura(MIDA),8.23333333333,-80.5,Inactive,http://www.mida.gob.pa/,555068.4857,910127.769099999,555068.4857000001,910127.7690999992
134-028,El Cano,Coclé,Tipo B Convencional,150,"8° 25' 00""","80° 31' 00""","1/7/1980, 7:00 PM",1/12/1995,E.T.E.S.A.,8.41666666667,-80.5166666667, ,http://www.hidromet.com.pa/red_nacional.php,553208.0699,930394.317299999,553208.0698999995,930394.3172999993
134-029,El Coco,Coclé,Tipo C Convencional,60,"8° 24' 00""","80° 21' 00""","1/8/1987, 7:00 PM",1/9/1987,E.T.E.S.A.,8.4,-80.35, ,http://www.hidromet.com.pa/red_nacional.php,571559.3984,928578.202500001,571559.3984000003,928578.2025000006
134-031,Se Llano Sanchez,Coclé,Tipo A Automática,40,"8° 11' 41""","80° 41' 53""","4/6/2003, 7:00 PM", ,E.T.E.S.A.,8.19472222222,-80.6980555556, ,http://www.hidromet.com.pa/red_nacional.php,533258.2017,905837.2875,533258.2017000001,905837.2874999996
136-001,El Valle de Anton,Coclé,Tipo A Automática,580,"8° 36' 18""","80° 07' 24""","1/6/1933, 7:00 PM", ,E.T.E.S.A.,8.605,-80.1233333333, ,http://www.hidromet.com.pa/red_nacional.php,596463.7986,951292.963500001,596463.7986000003,951292.9635000005
136-002,Anton,Coclé,Tipo A Convencional,33,"8° 23' 00""","80° 16' 00""","1/7/1969, 7:00 PM", ,E.T.E.S.A.,8.38333333333,-80.2666666667, ,http://www.hidromet.com.pa/red_nacional.php,580737.5778,926751.675899999,580737.5778000001,926751.6758999992
138-001,Santa Clara,Coclé,Tipo C Convencional,37,"8° 24' 00""","80° 07' 00""","12/31/1938, 7:00 PM",1/12/1960,E.T.E.S.A.,8.4,-80.1166666667, ,http://www.hidromet.com.pa/red_nacional.php,597249.0901,928628.421800001,597249.0900999997,928628.4218000006
138-002,Capira,Panamá,Tipo B Convencional,117,"8° 45' 00""","79° 52' 00""","1/10/1969, 7:00 PM",1/7/1979,E.T.E.S.A.,8.75,-79.8666666667, ,http://www.hidromet.com.pa/red_nacional.php,624661.3373,967400.6347,624661.3372999998,967400.6347000003
138-003,El Nance,Panamá,Tipo C Convencional,12,"8° 28' 00""","79° 58' 00""","1/11/1970, 7:00 PM",1/12/1998,E.T.E.S.A.,8.46666666667,-79.9666666667, ,http://www.hidromet.com.pa/red_nacional.php,613745.1875,936040.1963,613745.1875,936040.1963
138-004,Rio Hato,Coclé,Tipo C Convencional,30,"8° 22' 00""","80° 10' 00""","12/31/1992, 7:00 PM", ,E.T.E.S.A.,8.36666666667,-80.1666666667, ,http://www.hidromet.com.pa/red_nacional.php,591751.855,924930.8762,591751.8550000004,924930.8761999998
138-005,Chame,Panamá,Tipo C Convencional,30,"8° 35' 00""","79° 53' 00""","1/11/1970, 7:00 PM", ,E.T.E.S.A.,8.58333333333,-79.8833333333, ,http://www.hidromet.com.pa/red_nacional.php,622881.9876,948965.918400001,622881.9875999996,948965.9184000008
138-006,Sajalices,Panamá,Tipo C Convencional,40,"8° 41' 00""","79° 52' 00""","1/11/1970, 7:00 PM",1/12/1998,E.T.E.S.A.,8.68333333333,-79.8666666667, ,http://www.hidromet.com.pa/red_nacional.php,624683.4385,960028.880100001,624683.4385000002,960028.8801000006
138-007,Playa Coronado,Panamá,Tipo C Convencional,12,"8° 31' 00""","79° 54' 00""","12/31/1964, 7:00 PM",1/12/1971,E.T.E.S.A.,8.51666666667,-79.9, ,http://www.hidromet.com.pa/red_nacional.php,621068.7531,941589.009299999,621068.7531000003,941589.0092999991
138-008,Santa Rita,Coclé,Tipo C Convencional,180,"8° 30' 00""","80° 11' 00""","1/4/1972, 7:00 PM", ,E.T.E.S.A.,8.5,-80.1833333333, ,http://www.hidromet.com.pa/red_nacional.php,589885.8781,939668.9969,589885.8781000003,939668.9968999997
138-009,El Guayabito,Panamá,Tipo C Convencional,220,"8° 33' 00""","80° 01' 00""","1/11/1972, 7:00 PM",1/3/2000,E.T.E.S.A.,8.55,-80.0166666667, ,http://www.hidromet.com.pa/red_nacional.php,608217.4551,945240.1008,608217.4550999999,945240.1008000001
138-010,Sora,Panamá,Tipo C Convencional,500,"8° 37' 00""","80° 00' 00""","1/11/1972, 7:00 PM",1/3/2000,E.T.E.S.A.,8.61666666667,-80, ,http://www.hidromet.com.pa/red_nacional.php,610032.6235,952616.219699999,610032.6234999998,952616.2196999993
138-011,Campana,Panamá,Tipo C Convencional,854,"8° 42' 00""","79° 57' 00""","12/31/1947, 7:00 PM",1/1/1948,E.T.E.S.A.,8.7,-79.95, ,http://www.hidromet.com.pa/red_nacional.php,615509.409,961845.3895,615509.409,961845.3894999996
138-012,La Mitra,Panamá,Tipo C Convencional,60,"8° 50' 00""","79° 47' 00""","1/3/1974, 7:00 PM",1/3/2000,E.T.E.S.A.,8.83333333333,-79.7833333333, ,http://www.hidromet.com.pa/red_nacional.php,633798.9773,976644.230799999,633798.9773000004,976644.2307999991
138-013,Gorgona,Panamá,Tipo C Convencional,5,"8° 33' 00""","79° 53' 00""","1/6/1909, 7:00 PM",1/9/1992,E.T.E.S.A.,8.55,-79.8833333333, ,http://www.hidromet.com.pa/red_nacional.php,622892.6895,945280.089,622892.6895000003,945280.0889999997
138-014,Monte Oscuro,Panamá,Tipo C Convencional,0,"8° 43' 00""","79° 47' 00""","1/11/1979, 7:00 PM",1/4/1982,E.T.E.S.A.,8.71666666667,-79.7833333333, ,http://www.hidromet.com.pa/red_nacional.php,633840.7761,963743.252699999,633840.7761000004,963743.2526999991
138-015,Cerro Chame,Panamá,Tipo B Convencional,160,"8° 34' 00""","79° 50' 00""","1/6/1982, 7:00 PM",1/10/1982,E.T.E.S.A.,8.56666666667,-79.8333333333, ,http://www.hidromet.com.pa/red_nacional.php,628390.4781,947139.339299999,628390.4781,947139.3392999992
138-016,Cerro Campana,Panamá,Tipo A Automática,750,"8° 40' 02""","79° 55' 35""",, ,E.T.E.S.A.,8.66722222222,-79.9263888889, ,http://www.hidromet.com.pa/red_nacional.php,618117.3864,958228.302100001,618117.3864000002,958228.3021000009
140-001,Chorrera,Panamá,Tipo C Convencional,0,"8° 53' 00""","79° 47' 00""",,15/07/2009,E.T.E.S.A.,8.88333333333,-79.7833333333, ,http://www.hidromet.com.pa/red_nacional.php,633780.8947,982173.2447,633780.8947000001,982173.2446999997
140-002,La Polvareda,Panamá,Tipo C Convencional,90,"8° 57' 00""","79° 40' 00""","1/11/1970, 7:00 PM",1/3/1981,E.T.E.S.A.,8.95,-79.6666666667, ,http://www.hidromet.com.pa/red_nacional.php,646584.7263,989589.703,646584.7263000002,989589.7029999997
140-003,Nuevo Emperador,Panamá,Tipo C Convencional,150,"9° 00' 00""","79° 44' 00""","1/11/1970, 7:00 PM",1/3/2000,E.T.E.S.A.,9,-79.7333333333, ,http://www.hidromet.com.pa/red_nacional.php,639235.2434,995092.9705,639235.2434,995092.9704999998
140-004,Fernandez,Panamá,Tipo C Convencional,253,"8° 55' 00""","79° 57' 00""","12/31/1941, 7:00 PM",1/12/1958,E.T.E.S.A.,8.91666666667,-79.95, ,http://www.hidromet.com.pa/red_nacional.php,615442.1702,985803.066400001,615442.1701999996,985803.0664000008
140-005,Caimito,Panamá,Tipo C Convencional,180,"8° 49' 00""","79° 57' 00""","1/4/1970, 7:00 PM", ,E.T.E.S.A.,8.81666666667,-79.95, ,http://www.hidromet.com.pa/red_nacional.php,615473.4075,974745.643999999,615473.4074999997,974745.6439999994
140-006,Se Chorrera,Panamá,Tipo A Automática,0,"8° 53' 00""","79° 47' 00""","2/6/2003, 7:00 PM", ,E.T.E.S.A.,8.88333333333,-79.7833333333, ,http://www.hidromet.com.pa/red_nacional.php,633780.8947,982173.2447,633780.8947000001,982173.2446999997
140-007,El Llano,Panamá,Tipo A Automática,0,"8° 56' 03""","79° 39' 38""",, ,E.T.E.S.A.,8.93416666667,-79.6605555556, ,http://www.hidromet.com.pa/red_nacional.php,647263.0536,987841.1996,647263.0536000002,987841.1995999999
142-001,Universidad de Panama,Panamá,Tipo A Convencional,47,"8° 59' 00""","79° 32' 00""","1/8/1964, 7:00 PM",1/6/1977,Universidad Nacional,8.98333333333,-79.5333333333, , ,661231.4164,993331.838099999,661231.4164000005,993331.8380999994
142-002,Albrook Field,Panamá,Tipo B Mixta,12,"8° 58' 00""","79° 34' 00""","12/31/1936, 7:00 PM",30/04/2003,E.T.E.S.A.,8.96666666667,-79.5666666667, ,http://www.hidromet.com.pa/red_nacional.php,657573.5201,991474.181700001,657573.5201000003,991474.1817000005
142-009,Pueblo Nuevo,Panamá,Tipo C Convencional,50,"9° 00' 00""","79° 31' 00""","1/10/1969, 7:00 PM",1/12/1973,E.T.E.S.A.,9,-79.5166666667, ,http://www.hidromet.com.pa/red_nacional.php,663056.5217,995182.417099999,663056.5217000004,995182.4170999993
142-010,Paitilla,Panamá,Tipo B Convencional,10,"8° 58' 00""","79° 31' 00""","1/10/1969, 7:00 PM",30/05/2000,Aeronautica Civil,8.96666666667,-79.5166666667,Inactive,http://www.aeronautica.gob.pa/,663071.4274,991495.997,663071.4274000004,991495.9969999995
142-011,Bethania,Panamá,Tipo C Convencional,60,"9° 01' 00""","79° 32' 00""","1/5/1970, 7:00 PM",1/4/1973,E.T.E.S.A.,9.01666666667,-79.5333333333, ,http://www.hidromet.com.pa/red_nacional.php,661216.6511,997018.2349,661216.6511000004,997018.2348999996
142-012,Taboga,Panamá,Tipo C Convencional,6,"8° 48' 00""","79° 33' 00""","12/31/1917, 7:00 PM",1/12/1932,E.T.E.S.A.,8.8,-79.55, ,http://www.hidromet.com.pa/red_nacional.php,659478.1903,973049.625299999,659478.1902999999,973049.6252999995
142-019,La Pulida,Panamá,Tipo C Convencional,20,"8° 59' 00""","79° 33' 00""","12/31/1981, 7:00 PM",1/7/1989,E.T.E.S.A.,8.98333333333,-79.55, ,http://www.hidromet.com.pa/red_nacional.php,659398.8644,993324.553200001,659398.8644000003,993324.5532000009
142-020,Hato Pintado,Panamá,Tipo C Convencional,45,"9° 00' 00""","79° 31' 00""","1/6/1987, 7:00 PM", ,E.T.E.S.A.,9,-79.5166666667, ,http://www.hidromet.com.pa/red_nacional.php,663056.5217,995182.417099999,663056.5217000004,995182.4170999993
142-021,Complejo O Tumba Muerto,Panamá,Tipo C Automática,23,"9° 03' 00""","79° 23' 00""","1/3/1997, 7:00 PM",30/09/2002,E.T.E.S.A.,9.05,-79.3833333333, ,http://www.hidromet.com.pa/red_nacional.php,677692.3761,1000774.4496,677692.3761,1000774.4495999999
142-023,Hatillo,Panamá,Tipo C Mixta,22,"8° 58' 00""","79° 32' 00""","12/10/1999, 7:00 PM",30/09/2004,E.T.E.S.A.,8.96666666667,-79.5333333333, ,http://www.hidromet.com.pa/red_nacional.php,661238.7786,991488.642000001,661238.7785999998,991488.6420000009
142-025,Cerro Pelon,Panamá,Tipo A Automática,770,"9° 12' 32""","79° 22' 29""",, ,E.T.E.S.A.,9.20888888889,-79.3747222222, ,http://www.hidromet.com.pa/red_nacional.php,678559.9752,1018351.8596,678559.9752000002,1018351.8596000001
142-026,Sun Tower,Panamá,Tipo A Automática,80,"9° 00' 45""","79° 32' 07""","3/7/2007, 7:00 PM", ,E.T.E.S.A.,9.0125,-79.5352777778, ,http://www.hidromet.com.pa/red_nacional.php,661004.7185,996556.578,661004.7185000004,996556.5779999997
144-001,Tocumen (D.A.C),Panamá,Tipo A Convencional,20,"9° 03' 00""","79° 23' 00""","1/6/1957, 7:00 PM", ,Aeronautica Civil,9.05,-79.3833333333,Active,http://www.aeronautica.gob.pa/,677692.3761,1000774.4496,677692.3761,1000774.4495999999
144-002,Tocumen (E.T.E.S.A.),Panamá,Tipo A Mixta,14,"9° 03' 56""","79° 23' 31""","12/31/1969, 7:00 PM", ,E.T.E.S.A.,9.06555555556,-79.3919444444, ,http://www.hidromet.com.pa/red_nacional.php,676738.0626,1002490.6905,676738.0625999998,1002490.6905000005
144-003,Cerro Azul,Panamá,Tipo C Mixta,660,"9° 10' 00""","79° 25' 00""","1/11/1970, 7:00 PM",1/12/1998,E.T.E.S.A.,9.16666666667,-79.4166666667, ,http://www.hidromet.com.pa/red_nacional.php,673971.2535,1013661.4769,673971.2534999996,1013661.4769000001
144-004,Las Cumbres,Panamá,Tipo C Convencional,200,"9° 05' 00""","79° 32' 00""","1/9/1970, 7:00 PM",1/12/1997,E.T.E.S.A.,9.08333333333,-79.5333333333, ,http://www.hidromet.com.pa/red_nacional.php,661186.9579,1004391.0471,661186.9578999998,1004391.0471000001
146-001,Utive,Panamá,Tipo C Convencional,80,"9° 09' 00""","79° 20' 00""","1/11/1970, 7:00 PM",1/3/2000,E.T.E.S.A.,9.15,-79.3333333333, ,http://www.hidromet.com.pa/red_nacional.php,683138.5792,1011859.488,683138.5791999996,1011859.4879999999
146-002,Loma Bonita,Panamá,Tipo C Convencional,100,"9° 10' 00""","79° 15' 00""","1/11/1974, 7:00 PM", ,E.T.E.S.A.,9.16666666667,-79.25, ,http://www.hidromet.com.pa/red_nacional.php,692289.2012,1013746.3877,692289.2012,1013746.3877000008
146-003,Altos de Pacora,Panamá,Tipo A Automática,850,"9° 14' 44""","79° 20' 59""","1/11/1974, 7:00 PM", ,E.T.E.S.A.,9.24555555556,-79.3497222222, ,http://www.hidromet.com.pa/red_nacional.php,681288.5671,1022419.852,681288.5670999996,1022419.852
146-004,Ingenio Felipillo,Panamá,Tipo B Convencional,12,"9° 04' 00""","79° 18' 00""","1/4/1975, 7:00 PM",1/8/1991,E.T.E.S.A.,9.06666666667,-79.3, ,http://www.hidromet.com.pa/red_nacional.php,686845.6728,1002659.5752,686845.6727999998,1002659.5752000008
146-005,Boca de Pacora,Panamá,Tipo C Convencional,2,"9° 02' 00""","79° 17' 00""","12/31/1975, 7:00 PM",1/7/1986,E.T.E.S.A.,9.03333333333,-79.2833333333, ,http://www.hidromet.com.pa/red_nacional.php,688695.3959,998981.3533,688695.3958999999,998981.3532999996
148-001,Chepo,Panamá,Tipo C Convencional,30,"9° 10' 00""","79° 05' 00""","1/4/1955, 7:00 PM", ,E.T.E.S.A.,9.16666666667,-79.0833333333, ,http://www.hidromet.com.pa/red_nacional.php,710608.7048,1013839.8032,710608.7048000004,1013839.8032000009
148-002,Canita (Isla de Pato),Panamá,Tipo C Convencional,200,"9° 12' 00""","78° 55' 00""","1/9/1962, 7:00 PM",1/5/1971,E.T.E.S.A.,9.2,-78.9166666667, ,http://www.hidromet.com.pa/red_nacional.php,728908.5038,1017629.3334,728908.5038000001,1017629.3333999999
148-003,Maje,Panamá,Tipo B Convencional,100,"9° 07' 00""","78° 49' 00""","1/1/1958, 7:00 PM",1/4/1974,E.T.E.S.A.,9.11666666667,-78.8166666667, ,http://www.hidromet.com.pa/red_nacional.php,739957.0237,1008475.2253,739957.0236999998,1008475.2252999991
148-004,Piria,Panamá,Tipo C Automática,85,"9° 05' 00""","78° 20' 00""","1/1/1963, 7:00 PM", ,E.T.E.S.A.,9.08333333333,-78.3333333333, ,http://www.hidromet.com.pa/red_nacional.php,793137.8282,1005142.8178,793137.8282000003,1005142.8178000003
148-005,Zanja Escondida,Panamá,Tipo C Convencional,75,"9° 13' 00""","78° 32' 00""","1/10/1968, 7:00 PM",1/12/1976,E.T.E.S.A.,9.21666666667,-78.5333333333, ,http://www.hidromet.com.pa/red_nacional.php,771037.8928,1019741.2822,771037.8927999996,1019741.2821999993
148-006,Loma del Naranjo,Panamá,Tipo B Convencional,100,"9° 09' 00""","78° 53' 00""","1/7/1970, 7:00 PM",1/10/1975,E.T.E.S.A.,9.15,-78.8833333333, ,http://www.hidromet.com.pa/red_nacional.php,732605.2184,1012119.2949,732605.2183999997,1012119.2949000001
148-008,Rio Maje,Panamá,Tipo C Convencional,70,"9° 01' 00""","78° 44' 00""","1/11/1970, 7:00 PM", ,E.T.E.S.A.,9.01666666667,-78.7333333333, ,http://www.hidromet.com.pa/red_nacional.php,749189.1869,997467.591499999,749189.1869000001,997467.5914999992
148-009,Canita,Panamá,Tipo C Convencional,29,"9° 12' 00""","78° 55' 00""","1/9/1970, 7:00 PM",1/5/1974,E.T.E.S.A.,9.2,-78.9166666667, ,http://www.hidromet.com.pa/red_nacional.php,728908.5038,1017629.3334,728908.5038000001,1017629.3333999999
148-010,Pueblo Nuevo(Bayano),Panamá,Tipo C Convencional,46,"9° 05' 00""","78° 28' 00""","1/4/1971, 7:00 PM",1/3/1984,E.T.E.S.A.,9.08333333333,-78.4666666667, ,http://www.hidromet.com.pa/red_nacional.php,778471.5544,1005037.6757,778471.5543999998,1005037.6756999996
148-011,Bayano Campamento,Panamá,Tipo C Mixta,80,"9° 11' 00""","78° 53' 12""","1/8/1971, 7:00 PM", ,E.T.E.S.A.,9.18333333333,-78.8866666667, ,http://www.hidromet.com.pa/red_nacional.php,732217.0733,1015804.8136,732217.0733000003,1015804.8136
148-012,Rio Ipeti,Panamá,Tipo C Convencional,60,"8° 59' 00""","78° 31' 00""","1/11/1972, 7:00 PM",1/2/2001,E.T.E.S.A.,8.98333333333,-78.5166666667, ,http://www.hidromet.com.pa/red_nacional.php,773047.4298,993933.954500001,773047.4298,993933.9545000009
148-013,Aguas Claras,Panamá,Tipo C Convencional,40,"9° 14' 00""","78° 43' 00""","1/6/1973, 7:00 PM",1/3/2000,E.T.E.S.A.,9.23333333333,-78.7166666667, ,http://www.hidromet.com.pa/red_nacional.php,750870.7977,1021451.4292,750870.7977,1021451.4291999992
148-014,Tigron,Panamá,Tipo C Mixta,5,"9° 14' 00""","78° 56' 00""","1/9/1973, 7:00 PM",1/5/1975,E.T.E.S.A.,9.23333333333,-78.9333333333, ,http://www.hidromet.com.pa/red_nacional.php,727055.1601,1021306.2959,727055.1601,1021306.2959000003
148-015,Charare,Panamá,Tipo C Convencional,100,"9° 14' 00""","79° 04' 00""","1/11/1974, 7:00 PM",1/3/2000,E.T.E.S.A.,9.23333333333,-79.0666666667, ,http://www.hidromet.com.pa/red_nacional.php,712400.9461,1021224.1843,712400.9461000003,1021224.1842999998
148-016,Tanara,Panamá,Tipo C Convencional,15,"9° 08' 00""","79° 12' 00""","1/4/1975, 7:00 PM",1/12/1998,E.T.E.S.A.,9.13333333333,-79.2, ,http://www.hidromet.com.pa/red_nacional.php,697803.3078,1010086.5097,697803.3077999996,1010086.5097000003
148-017,San Antonio (Pacora),Panamá,Tipo C Convencional,30,"9° 05' 00""","79° 13' 00""","12/31/1975, 7:00 PM",1/8/1989,E.T.E.S.A.,9.08333333333,-79.2166666667, ,http://www.hidromet.com.pa/red_nacional.php,695998.4857,1004546.9581,695998.4857000001,1004546.9581000004
148-018,Rio Chico,Panamá,Tipo C Convencional,0,"9° 02' 00""","79° 12' 00""","12/31/1975, 7:00 PM",1/12/1979,E.T.E.S.A.,9.03333333333,-79.2, ,http://www.hidromet.com.pa/red_nacional.php,697858.1849,999025.5175,697858.1848999998,999025.5175000001
148-019,Boca del Rio Mamoni,Panamá,Tipo C Convencional,10,"9° 07' 00""","79° 04' 00""","12/31/1975, 7:00 PM",1/11/1982,E.T.E.S.A.,9.11666666667,-79.0666666667, ,http://www.hidromet.com.pa/red_nacional.php,712470.4089,1008318.6996,712470.4089000002,1008318.6995999999
148-020,Canita,Panamá,Tipo B Convencional,10,"9° 13' 00""","78° 50' 00""","1/4/1976, 7:00 PM",1/12/1980,E.T.E.S.A.,9.21666666667,-78.8333333333, ,http://www.hidromet.com.pa/red_nacional.php,738057.7712,1019527.5779,738057.7712000003,1019527.5778999999
148-022,Rio Canazas,Panamá,Tipo C Convencional,50,"8° 58' 00""","78° 17' 00""","1/4/1976, 7:00 PM",1/8/1979,E.T.E.S.A.,8.96666666667,-78.2833333333, ,http://www.hidromet.com.pa/red_nacional.php,798734.1801,992271.391899999,798734.1801000005,992271.3918999992
148-023,Torti,Panamá,Tipo A Automática,100,"8° 54' 57""","78° 23' 33""","1/7/1977, 7:00 PM", ,E.T.E.S.A.,8.91583333333,-78.3925, ,http://www.hidromet.com.pa/red_nacional.php,786761.5403,986558.784600001,786761.5403000005,986558.7846000008
148-024,Rio Diablo,Panamá,Tipo B Automática,70,"9° 12' 00""","78° 31' 00""","1/10/1983, 7:00 PM",1/11/1983,E.T.E.S.A.,9.2,-78.5166666667, ,http://www.hidromet.com.pa/red_nacional.php,772883.1221,1017909.6728,772883.1221000003,1017909.6728000008
148-025,Aguas Claras 1,Panamá,Tipo B Automática,64,"9° 14' 00""","78° 41' 00""","1/6/1983, 7:00 PM",1/7/1983,E.T.E.S.A.,9.23333333333,-78.6833333333, ,http://www.hidromet.com.pa/red_nacional.php,754535.0381,1021475.0439,754535.0380999995,1021475.0438999999
148-026,Piria,Panamá,Tipo B Automática,65,"9° 06' 00""","78° 21' 00""","1/7/1983, 7:00 PM",1/3/2004,E.T.E.S.A.,9.1,-78.35, ,http://www.hidromet.com.pa/red_nacional.php,791290.9722,1006973.8952,791290.9721999997,1006973.8951999992
148-027,Presa,Panamá,Tipo B Automática,65,"9° 10' 00""","78° 53' 00""","1/1/1984, 7:00 PM",1/2/1984,E.T.E.S.A.,9.16666666667,-78.8833333333, ,http://www.hidromet.com.pa/red_nacional.php,732594.3717,1013963.1334,732594.3717,1013963.1334000006
148-028,Chichebre,Panamá,Tipo B Convencional,10,"9° 08' 00""","79° 08' 00""","1/2/1981, 7:00 PM",1/12/1995,E.T.E.S.A.,9.13333333333,-79.1333333333, ,http://www.hidromet.com.pa/red_nacional.php,705131.7907,1010123.7445,705131.7906999998,1010123.7445
148-029,Viejo Pedro,Panamá,Tipo C Mixta,10,"9° 14' 00""","78° 49' 00""","1/9/1990, 7:00 PM", ,E.T.E.S.A.,9.23333333333,-78.8166666667, ,http://www.hidromet.com.pa/red_nacional.php,739878.5586,1021382.6438,739878.5586000001,1021382.6437999997
148-030,Alto Maje,Panamá,Tipo C Convencional,80,"8° 58' 00""","78° 42' 00""","1/7/1991, 7:00 PM",31/12/1995,E.T.E.S.A.,8.96666666667,-78.7, ,http://www.hidromet.com.pa/red_nacional.php,752890.3324,991958.3773,752890.3323999997,991958.3772999998
148-031,Maje Tm,Panamá,Tipo B Automática,80,"9° 01' 00""","78° 45' 00""",,14/03/2001,E.T.E.S.A.,9.01666666667,-78.75, ,http://www.hidromet.com.pa/red_nacional.php,747356.0081,997456.261600001,747356.0081000002,997456.2616000008
148-032,Cañazas TM,Panamá,Tipo B Automática,80,"8° 58' 00""","78° 17' 00""","11/10/1996, 7:00 PM",11/11/1996,E.T.E.S.A.,8.96666666667,-78.2833333333, ,http://www.hidromet.com.pa/red_nacional.php,798734.1801,992271.391899999,798734.1801000005,992271.3918999992
150-001,San Miguel,Panamá,Tipo B Convencional,10,"8° 27' 00""","78° 56' 00""","1/1/1973, 7:00 PM",1/12/1998,E.T.E.S.A.,8.45,-78.9333333333, ,http://www.hidromet.com.pa/red_nacional.php,727535.8047,934649.8068,727535.8047000002,934649.8068000004
150-002,Chiman,Panamá,Tipo B Convencional,30,"8° 42' 00""","78° 37' 30""","1/1/1973, 7:00 PM", ,E.T.E.S.A.,8.7,-78.625, ,http://www.hidromet.com.pa/red_nacional.php,761329.136,962504.898700001,761329.1359999999,962504.8987000007
150-003,Pueblo Nuevo de Chinina,Panamá,Tipo C Convencional,5,"8° 59' 00""","79° 01' 00""","12/31/1992, 7:00 PM",1/12/1998,E.T.E.S.A.,8.98333333333,-79.0166666667, ,http://www.hidromet.com.pa/red_nacional.php,718047.7485,993599.0239,718047.7484999998,993599.0239000004
150-004,Isla Contadora,Panamá,Tipo C Mixta,10,"8° 37' 41""","79° 02' 11""",, ,E.T.E.S.A.,8.62805555556,-79.0363888889, ,http://www.hidromet.com.pa/red_nacional.php,716084.9368,954287.0965,716084.9368000003,954287.0965
150-005,San Miguel 2,Panamá,Tipo A Automática,28,"8° 27' 21""","78° 56' 05""","1/10/2006, 7:00 PM", ,E.T.E.S.A.,8.45583333333,-78.9347222222, ,http://www.hidromet.com.pa/red_nacional.php,727379.4063,935294.2981,727379.4062999999,935294.2981000002
152-003,Santa Fe (Interamericana),Darién,Tipo C Convencional,40,"8° 35' 00""","78° 05' 00""","1/3/1973, 7:00 PM",1/3/1977,E.T.E.S.A.,8.58333333333,-78.0833333333, ,http://www.hidromet.com.pa/red_nacional.php,821074.2807,950007.659299999,821074.2807,950007.6592999995
152-005,Rio Congo,Darién,Tipo C Convencional,5,"8° 24' 00""","78° 22' 00""","1/2/1977, 7:00 PM", ,E.T.E.S.A.,8.4,-78.3666666667, ,http://www.hidromet.com.pa/red_nacional.php,789999.7264,929492.952,789999.7264,929492.9519999996
152-006,Santa Fe,Darién,Tipo A Automática,36,"8° 39' 35""","78° 09' 44""",, ,E.T.E.S.A.,8.65972222222,-78.1622222222, ,http://www.hidromet.com.pa/red_nacional.php,812320.2262,958397.6066,812320.2262000004,958397.6065999996
154-016,Quebrada Felix,Darién,Tipo C Convencional,15,"8° 24' 00""","77° 45' 00""","1/6/1974, 7:00 PM",1/4/1979,E.T.E.S.A.,8.4,-77.75, ,http://www.hidromet.com.pa/red_nacional.php,857974.6494,930003.241900001,857974.6494000005,930003.2419000007
154-017,Lajas Blancas,Darién,Tipo C Convencional,10,"8° 24' 00""","77° 47' 00""","1/10/1979, 7:00 PM",1/3/2000,E.T.E.S.A.,8.4,-77.7833333333, ,http://www.hidromet.com.pa/red_nacional.php,854299.374,929972.910800001,854299.3739999998,929972.9108000007
154-018,Meteti,Darién,Tipo B Convencional,10,"8° 30' 00""","77° 59' 00""","1/9/1980, 7:00 PM",1/10/1997,E.T.E.S.A.,8.5,-77.9833333333, ,http://www.hidromet.com.pa/red_nacional.php,832164.3823,940867.700999999,832164.3822999997,940867.7009999994
154-019,Zapallal,Darién,Tipo B Convencional,20,"9° 00' 00""","77° 58' 00""","1/9/1988, 7:00 PM",1/4/1990,E.T.E.S.A.,9,-77.9666666667, ,http://www.hidromet.com.pa/red_nacional.php,833554.9794,996234.3792,833554.9793999996,996234.3792000003
154-020,Yaviza,Darién,Tipo C Mixta,10,"8° 09' 52""","77° 41' 37""","11/5/1997, 7:00 PM", ,E.T.E.S.A.,8.16444444444,-77.6936111111, ,http://www.hidromet.com.pa/red_nacional.php,864409.3254,903971.9793,864409.3254000004,903971.9792999998
156-001,Boca de Cupe 1,Darién,Tipo B Convencional,50,"8° 03' 00""","77° 34' 00""","1/2/1961, 7:00 PM",1/12/1998,E.T.E.S.A.,8.05,-77.5666666667, ,http://www.hidromet.com.pa/red_nacional.php,878523.474,891415.045399999,878523.4740000004,891415.0453999992
156-002,El Real,Darién,Tipo A Convencional,10,"8° 08' 00""","77° 45' 00""","1/2/1973, 7:00 PM",1/11/1983,E.T.E.S.A.,8.13333333333,-77.75, ,http://www.hidromet.com.pa/red_nacional.php,858215.7229,900476.612299999,858215.7229000004,900476.6122999992
156-003,Paya,Darién,Tipo C Convencional,500,"7° 59' 00""","77° 17' 00""","1/4/1977, 7:00 PM",1/3/2000,E.T.E.S.A.,7.98333333333,-77.2833333333, ,http://www.hidromet.com.pa/red_nacional.php,909868.5693,884303.570599999,909868.5692999996,884303.5705999993
156-004,Boca de Cupe 2,Darién,Tipo A Automática,0,"8° 01' 58""","77° 35' 07""","11/30/2007, 7:00 PM", ,E.T.E.S.A.,8.03277777778,-77.5852777778, ,http://www.hidromet.com.pa/red_nacional.php,876485.1683,889490.6107,876485.1683,889490.6107000001
158-001,Tucuti,Darién,Tipo C Convencional,30,"7° 58' 00""","77° 55' 00""","1/3/1973, 7:00 PM",1/3/2000,E.T.E.S.A.,7.96666666667,-77.9166666667, ,http://www.hidromet.com.pa/red_nacional.php,839967.2534,881881.546700001,839967.2533999998,881881.5467000008
158-002,Manene,Darién,Tipo C Convencional,90,"7° 41' 00""","77° 50' 00""","1/5/1975, 7:00 PM",1/3/2000,E.T.E.S.A.,7.68333333333,-77.8333333333, ,http://www.hidromet.com.pa/red_nacional.php,849400.7926,850582.032500001,849400.7926000003,850582.0325000007
158-003,Camoganti,Darién,Tipo C Convencional,100,"8° 05' 00""","77° 54' 00""","1/3/1977, 7:00 PM", ,E.T.E.S.A.,8.08333333333,-77.9, ,http://www.hidromet.com.pa/red_nacional.php,841708.9907,894811.2982,841708.9907,894811.2982000001
160-001,La Palma,Darién,Tipo C Convencional,10,"8° 25' 00""","78° 07' 00""","12/31/1920, 7:00 PM",1/3/2000,E.T.E.S.A.,8.41666666667,-78.1166666667, ,http://www.hidromet.com.pa/red_nacional.php,817539.2029,931531.692299999,817539.2028999999,931531.6922999993
160-002,Taimati,Darién,Tipo C Convencional,5,"8° 10' 00""","78° 14' 20""","1/2/1973, 7:00 PM", ,E.T.E.S.A.,8.16666666667,-78.2388888889, ,http://www.hidromet.com.pa/red_nacional.php,804261.1406,903765.2159,804261.1405999996,903765.2159000002
162-001,Garachine,Darién,Tipo B Convencional,10,"8° 05' 00""","78° 22' 00""","1/6/1923, 7:00 PM", ,E.T.E.S.A.,8.08333333333,-78.3666666667, ,http://www.hidromet.com.pa/red_nacional.php,790230.7751,894448.822699999,790230.7751000002,894448.8226999994
162-002,Boca de Sabalo,Darién,Tipo C Convencional,15,"8° 02' 00""","78° 15' 00""","1/1/1973, 7:00 PM",1/6/1999,E.T.E.S.A.,8.03333333333,-78.25, ,http://www.hidromet.com.pa/red_nacional.php,803135.7134,889000.1313,803135.7133999998,889000.1313000005
162-003,Boca de Trampa,Darién,Tipo C Convencional,100,"7° 56' 00""","78° 08' 00""","1/4/1977, 7:00 PM", ,E.T.E.S.A.,7.93333333333,-78.1333333333, ,http://www.hidromet.com.pa/red_nacional.php,816083.1729,878019.8112,816083.1728999997,878019.8112000003
164-001,Jaque,Darién,Tipo C Mixta,10,"7° 30' 55""","78° 09' 53""","1/1/1973, 7:00 PM", ,E.T.E.S.A.,7.51527777778,-78.1647222222, ,http://www.hidromet.com.pa/red_nacional.php,812927.4407,831724.956,812927.4407000002,831724.9560000002
164-002,Puerto Pina,Darién,Tipo C Convencional,10,"7° 36' 00""","78° 11' 00""","1/5/1992, 7:00 PM",1/12/1998,E.T.E.S.A.,7.6,-78.1833333333, ,http://www.hidromet.com.pa/red_nacional.php,810811.0525,841088.671800001,810811.0525000002,841088.6718000006
89-001,Arenal,Bocas del Toro,Tipo C Convencional,20,"9° 28' 00""","82° 40' 00""","1/10/1988, 7:00 PM",1/11/1988,Costa Rica,9.46666666667,-82.6666666667, , ,317026.2597,1046884.0036,317026.2597000003,1046884.0035999995
91-001,Seiyic,Bocas del Toro,Tipo A Mixta,80,"9° 23' 00""","82° 40' 00""","1/3/1960, 7:00 PM", ,E.T.E.S.A.,9.38333333333,-82.6666666667, ,http://www.hidromet.com.pa/red_nacional.php,316982.3419,1037666.9706,316982.34190000035,1037666.9705999997
91-002,Corriente Grande,Bocas del Toro,Tipo C Convencional,50,"9° 25' 00""","82° 35' 00""","1/3/1960, 7:00 PM",1/8/1964,E.T.E.S.A.,9.41666666667,-82.5833333333, ,http://www.hidromet.com.pa/red_nacional.php,326152.148,1041311.2978,326152.14800000004,1041311.2978000008
91-009,Changuinola 1,Bocas del Toro,Tipo C Convencional,10,"9° 29' 00""","82° 29' 00""","12/31/1908, 7:00 PM",1/4/1981,E.T.E.S.A.,9.48333333333,-82.4833333333, ,http://www.hidromet.com.pa/red_nacional.php,337165.7762,1048636.2176,337165.7762000002,1048636.2175999992
91-012,Quebrada Gavilan,Bocas del Toro,Tipo C Convencional,50,"9° 16' 00""","82° 30' 00""","1/10/1970, 7:00 PM",1/11/1991,E.T.E.S.A.,9.26666666667,-82.5, ,http://www.hidromet.com.pa/red_nacional.php,335233.5687,1024681.6818,335233.5686999997,1024681.6818000004
91-023,Rio Teribe,Bocas del Toro,Tipo C Convencional,20,"9° 23' 00""","82° 33' 00""","1/11/1972, 7:00 PM",30/09/2005,E.T.E.S.A.,9.38333333333,-82.55, ,http://www.hidromet.com.pa/red_nacional.php,329796.6699,1037608.3085,329796.6699000001,1037608.3084999993
91-024,Puerto Palenque,Bocas del Toro,Tipo C Convencional,180,"9° 23' 00""","82° 44' 00""","1/6/1973, 7:00 PM",1/9/1979,E.T.E.S.A.,9.38333333333,-82.7333333333, ,http://www.hidromet.com.pa/red_nacional.php,309659.5471,1037702.405,309659.5471000001,1037702.4049999993
91-025,Quebrada Huaca,Bocas del Toro,Tipo C Convencional,140,"9° 11' 00""","82° 30' 00""","1/11/1977, 7:00 PM",1/6/1981,E.T.E.S.A.,9.18333333333,-82.5, ,http://www.hidromet.com.pa/red_nacional.php,335194.8796,1015465.4511,335194.87959999964,1015465.4510999992
91-026,Changuinola Sur,Bocas del Toro,Tipo A Mixta,400,"8° 57' 37""","82° 25' 29""","1/2/1979, 7:00 PM", ,E.T.E.S.A.,8.96027777778,-82.4247222222, ,http://www.hidromet.com.pa/red_nacional.php,343370.5921,990763.954600001,343370.5921,990763.9546000008
91-027,Changuinola Sierra,Bocas del Toro,Tipo C Automática,1220,"8° 52' 00""","82° 25' 00""","1/6/1981, 7:00 PM",1/2/1994,E.T.E.S.A.,8.86666666667,-82.4166666667, ,http://www.hidromet.com.pa/red_nacional.php,344216.699,980408.165200001,344216.699,980408.1652000006
91-028,Teribe 2,Bocas del Toro,Tipo C Convencional,330,"9° 19' 00""","82° 48' 00""","1/6/1982, 7:00 PM",1/2/1986,E.T.E.S.A.,9.31666666667,-82.8, ,http://www.hidromet.com.pa/red_nacional.php,302298.8567,1030365.138,302298.85670000035,1030365.1380000003
91-029,Changuinola 2,Bocas del Toro,Tipo C Automática,1800,"8° 57' 00""","82° 41' 00""","1/4/1983, 7:00 PM", ,E.T.E.S.A.,8.95,-82.6833333333, ,http://www.hidromet.com.pa/red_nacional.php,314927.2772,989747.368899999,314927.27720000036,989747.3688999992
91-030,El Silencio,Bocas del Toro,Tipo C Convencional,20,"9° 21' 00""","82° 33' 00""","1/10/1988, 7:00 PM", ,E.T.E.S.A.,9.35,-82.55, ,http://www.hidromet.com.pa/red_nacional.php,329780.4342,1033921.7074,329780.4342,1033921.7073999997
91-031,Finca 42,Bocas del Toro,Tipo C Convencional,20,"9° 29' 00""","82° 39' 00""","1/10/1988, 7:00 PM",1/11/1988,Chiriqui Land Company,9.48333333333,-82.65, , ,318865.2227,1048718.6851,318865.2226999998,1048718.6851000004
91-032,Changuinola Arriba,Bocas del Toro,Tipo A Automática,152,"9° 10' 33""","82° 29' 29""","1/6/2007, 7:00 PM", ,E.T.E.S.A.,9.17583333333,-82.4913888889, ,http://www.hidromet.com.pa/red_nacional.php,336137.7428,1014632.052,336137.7428000001,1014632.0519999992
91-033,Seiyic 2,Bocas del Toro,Tipo A Automática,723,"9° 23' 18""","82° 39' 04""",, ,E.T.E.S.A.,9.38833333333,-82.6511111111, ,http://www.hidromet.com.pa/red_nacional.php,318693.5594,1038211.9195,318693.5593999997,1038211.9195000008
93-001,Chiriqui Grande,Bocas del Toro,Tipo C Convencional,100,"8° 58' 00""","82° 07' 00""","1/4/1958, 7:00 PM",1/7/1968,E.T.E.S.A.,8.96666666667,-82.1166666667, ,http://www.hidromet.com.pa/red_nacional.php,377244.0555,991353.4015,377244.0554999998,991353.4014999997
93-002,Aeropuerto De Bocas,Bocas del Toro,Tipo A Convencional,2,"9° 20' 00""","82° 15' 00""","12/31/1971, 7:00 PM", ,E.T.E.S.A.,9.33333333333,-82.25, ,http://www.hidromet.com.pa/red_nacional.php,362725.2122,1031947.798,362725.21219999995,1031947.7980000004
93-004,Almirante,Bocas del Toro,Tipo B Convencional,10,"9° 18' 00""","82° 25' 00""","12/31/1971, 7:00 PM",1/2/1981,E.T.E.S.A.,9.3,-82.4166666667, ,http://www.hidromet.com.pa/red_nacional.php,344403.7993,1028330.5215,344403.7993000001,1028330.5215000007
93-005,Rambala,Bocas del Toro,Tipo C Convencional,80,"8° 55' 00""","82° 10' 00""","1/6/1974, 7:00 PM",1/3/2000,E.T.E.S.A.,8.91666666667,-82.1666666667, ,http://www.hidromet.com.pa/red_nacional.php,371729.3078,985841.5349,371729.3077999996,985841.5349000003
93-006,Punta Robalo,Bocas del Toro,Tipo C Convencional,2,"9° 02' 00""","82° 15' 00""","1/5/1977, 7:00 PM",1/8/1992,E.T.E.S.A.,9.03333333333,-82.25, ,http://www.hidromet.com.pa/red_nacional.php,362609.6847,998772.7578,362609.6847000001,998772.7577999998
93-007,Miramar,Bocas del Toro,Tipo A Automática,23,"9° 00' 06""","82° 15' 33""",, ,E.T.E.S.A.,9.00166666667,-82.2591666667, ,http://www.hidromet.com.pa/red_nacional.php,361589.937,995274.431600001,361589.9369999999,995274.4316000007
95-001,Canquintu,Bocas del Toro,Tipo C Convencional,20,"8° 51' 00""","81° 49' 00""","1/4/1974, 7:00 PM",1/10/2000,E.T.E.S.A.,8.85,-81.8166666667, ,http://www.hidromet.com.pa/red_nacional.php,410197.3228,978367.1306,410197.3228000002,978367.1305999998
95-002,Cusapin,Bocas del Toro,Tipo C Convencional,2,"9° 11' 00""","81° 53' 00""","1/5/1977, 7:00 PM", ,E.T.E.S.A.,9.18333333333,-81.8833333333, ,http://www.hidromet.com.pa/red_nacional.php,402955.0157,1015240.4963,402955.01570000034,1015240.4963000007
95-003,Santa Catalina,Bocas del Toro,Tipo C Convencional,2,"8° 47' 00""","81° 20' 00""","1/5/1977, 7:00 PM", ,E.T.E.S.A.,8.78333333333,-81.3333333333, ,http://www.hidromet.com.pa/red_nacional.php,463340.2657,970914.537699999,463340.26570000034,970914.5376999993
95-005,Mistico Flores,Bocas del Toro,Tipo B Convencional,1500,"8° 36' 00""","81° 46' 00""","1/4/1981, 7:00 PM",1/4/1987,CODEMIN,8.6,-81.7666666667, , ,415639.6621,950714.1669,415639.6621000003,950714.1668999996
97-001,Calovebora,Veraguas,Tipo A Mixta,20,"8° 47' 15""","81° 12' 36""","1/8/1975, 7:00 PM", ,E.T.E.S.A.,8.7875,-81.21, ,http://www.hidromet.com.pa/red_nacional.php,476904.7007,971365.3697,476904.7006999999,971365.3696999997
97-002,Rio Calovebora,Bocas del Toro,Tipo C Convencional,10,"8° 45' 00""","81° 13' 00""","1/5/1977, 7:00 PM",1/2/1983,E.T.E.S.A.,8.75,-81.2166666667, ,http://www.hidromet.com.pa/red_nacional.php,476169.1232,967219.914100001,476169.12320000026,967219.9141000006
97-003,El Guabal,Veraguas,Tipo C Convencional,100,"8° 35' 00""","81° 12' 00""","1/1/1983, 7:00 PM", ,E.T.E.S.A.,8.58333333333,-81.2, ,http://www.hidromet.com.pa/red_nacional.php,477992.5831,948792.9167,477992.5831000004,948792.9167
97-004,Rio Luis,Veraguas,Tipo C Convencional,100,"8° 40' 00""","81° 15' 00""","1/3/1983, 7:00 PM", ,E.T.E.S.A.,8.66666666667,-81.25, ,http://www.hidromet.com.pa/red_nacional.php,472496.7272,958009.1434,472496.7271999996,958009.1434000004
UTPChiriqui,UTP Campus Chiriquí,Chiriquí,Desconocida,34, , ,, ,Universidad Tecnológica de Panamá,0,0, ,http://cihh.utp.ac.pa/estaciones-meteorologicas,341095.6201,931370.41,341095.62009999994,931370.4100000001
UTPGamboa,Observatorio de Hidrología Tropical en Cerro Pelado,Colón,Desconocida,176, , ,, ,Universidad Tecnológica de Panamá,0,0, ,http://cihh.utp.ac.pa/estaciones-meteorologicas,642556.9301,1008905,642556.9301000005,1008905
UTPTCM,UTP Tocumen,Panamá,Desconocida,28, , ,"12/29/1899, 6:40 PM", ,Universidad Tecnológica de Panamá,0,0,Active,http://cihh.utp.ac.pa/estaciones-meteorologicas,675283.9637,1002740.9007,675283.9637000002,1002740.9006999992
